<?xml version="1.0" encoding="utf-8" ?>
<kml xmlns="http://www.opengis.net/kml/2.2">
<Document id="root_doc">
<Schema name="ajan_dam_flood_extent" id="ajan_dam_flood_extent">
	<SimpleField name="zone_id" type="string"></SimpleField>
	<SimpleField name="lead_time" type="string"></SimpleField>
	<SimpleField name="color" type="string"></SimpleField>
</Schema>
<Folder><name>ajan_dam_flood_extent</name>
  <Placemark id="ajan_dam_flood_extent.1">
	<Style><LineStyle><color>ff0000ff</color></LineStyle><PolyStyle><fill>0</fill></PolyStyle></Style>
	<ExtendedData><SchemaData schemaUrl="#ajan_dam_flood_extent">
		<SimpleData name="zone_id">1</SimpleData>
		<SimpleData name="lead_time">&lt; 30 mins (Flash Critical)</SimpleData>
		<SimpleData name="color">#ef4444</SimpleData>
	</SchemaData></ExtendedData>
      <Polygon><outerBoundaryIs><LinearRing><coordinates>86.1378297777778,25.0969648888889 86.1378297777778,25.0966871111111 86.137552,25.0966871111111 86.137552,25.0964093333333 86.1372742222222,25.0964093333333 86.1372742222222,25.0961315555556 86.1369964444444,25.0961315555556 86.1369964444444,25.0958537777778 86.1367186666667,25.0958537777778 86.1367186666667,25.095576 86.1364408888889,25.095576 86.1364408888889,25.0952982222222 86.1361631111111,25.0952982222222 86.1361631111111,25.0950204444444 86.1358853333333,25.0950204444444 86.1358853333333,25.0947426666667 86.1356075555556,25.0947426666667 86.1356075555556,25.0944648888889 86.1353297777778,25.0944648888889 86.1353297777778,25.0941871111111 86.135052,25.0941871111111 86.135052,25.0939093333333 86.1347742222222,25.0939093333333 86.1347742222222,25.0936315555556 86.1344964444444,25.0936315555556 86.1344964444444,25.0933537777778 86.1342186666667,25.0933537777778 86.1342186666667,25.093076 86.1339408888889,25.093076 86.1339408888889,25.0927982222222 86.1336631111111,25.0927982222222 86.1336631111111,25.0925204444444 86.1333853333333,25.0925204444444 86.1333853333333,25.0922426666667 86.1331075555556,25.0922426666667 86.1331075555556,25.0919648888889 86.1328297777778,25.0919648888889 86.1328297777778,25.0916871111111 86.132552,25.0916871111111 86.132552,25.0914093333333 86.1322742222222,25.0914093333333 86.1322742222222,25.0911315555556 86.1319964444444,25.0911315555556 86.1319964444444,25.0908537777778 86.1317186666667,25.0908537777778 86.1317186666667,25.090576 86.1314408888889,25.090576 86.1314408888889,25.0902982222222 86.1311631111111,25.0902982222222 86.1311631111111,25.0900204444444 86.1308853333333,25.0900204444444 86.1308853333333,25.0897426666667 86.1306075555556,25.0897426666667 86.1306075555556,25.0894648888889 86.1303297777778,25.0894648888889 86.1303297777778,25.0891871111111 86.130052,25.0891871111111 86.130052,25.0889093333333 86.1297742222222,25.0889093333333 86.1297742222222,25.0886315555556 86.1294964444444,25.0886315555556 86.1294964444444,25.0883537777778 86.1292186666667,25.0883537777778 86.1292186666667,25.088076 86.1289408888889,25.088076 86.1289408888889,25.0877982222222 86.1286631111111,25.0877982222222 86.1286631111111,25.0875204444444 86.1283853333333,25.0875204444444 86.1283853333333,25.0872426666667 86.1281075555555,25.0872426666667 86.1281075555555,25.0869648888889 86.1278297777778,25.0869648888889 86.1278297777778,25.0866871111111 86.127552,25.0866871111111 86.127552,25.0864093333333 86.1272742222222,25.0864093333333 86.1272742222222,25.0861315555556 86.1269964444444,25.0861315555556 86.1269964444444,25.0858537777778 86.1267186666667,25.0858537777778 86.1267186666667,25.085576 86.1264408888889,25.085576 86.1264408888889,25.0852982222222 86.1261631111111,25.0852982222222 86.1261631111111,25.0850204444444 86.1258853333333,25.0850204444444 86.1258853333333,25.0847426666667 86.1256075555555,25.0847426666667 86.1256075555555,25.0844648888889 86.1253297777778,25.0844648888889 86.1253297777778,25.0841871111111 86.125052,25.0841871111111 86.125052,25.0839093333333 86.1247742222222,25.0839093333333 86.1247742222222,25.0836315555556 86.1244964444444,25.0836315555556 86.1244964444444,25.0833537777778 86.1242186666667,25.0833537777778 86.1242186666667,25.083076 86.1239408888889,25.083076 86.1239408888889,25.0827982222222 86.1236631111111,25.0827982222222 86.1236631111111,25.0825204444444 86.1233853333333,25.0825204444444 86.1233853333333,25.0822426666667 86.1231075555555,25.0822426666667 86.1231075555555,25.0819648888889 86.1228297777778,25.0819648888889 86.1228297777778,25.0816871111111 86.122552,25.0816871111111 86.122552,25.0814093333333 86.1222742222222,25.0814093333333 86.1222742222222,25.0811315555556 86.1219964444444,25.0811315555556 86.1219964444444,25.0808537777778 86.1217186666667,25.0808537777778 86.1217186666667,25.080576 86.1214408888889,25.080576 86.1214408888889,25.0802982222222 86.1211631111111,25.0802982222222 86.1211631111111,25.0800204444444 86.1208853333333,25.0800204444444 86.1208853333333,25.0797426666667 86.1206075555556,25.0797426666667 86.1206075555556,25.0794648888889 86.1203297777778,25.0794648888889 86.1203297777778,25.0791871111111 86.120052,25.0791871111111 86.120052,25.0789093333333 86.1197742222222,25.0789093333333 86.1197742222222,25.0786315555556 86.1194964444444,25.0786315555556 86.1194964444444,25.0783537777778 86.1192186666667,25.0783537777778 86.1192186666667,25.078076 86.1189408888889,25.078076 86.1189408888889,25.0777982222222 86.1186631111111,25.0777982222222 86.1186631111111,25.0775204444444 86.1183853333333,25.0775204444444 86.1183853333333,25.0772426666667 86.1181075555556,25.0772426666667 86.1181075555556,25.0769648888889 86.1178297777778,25.0769648888889 86.1178297777778,25.0766871111111 86.117552,25.0766871111111 86.117552,25.0764093333333 86.1172742222222,25.0764093333333 86.1172742222222,25.0761315555556 86.1169964444444,25.0761315555556 86.1169964444444,25.0758537777778 86.1167186666667,25.0758537777778 86.1167186666667,25.075576 86.1164408888889,25.075576 86.1164408888889,25.0752982222222 86.1161631111111,25.0752982222222 86.1161631111111,25.0750204444444 86.1158853333333,25.0750204444444 86.1158853333333,25.0747426666667 86.1156075555556,25.0747426666667 86.1156075555556,25.0744648888889 86.1153297777778,25.0744648888889 86.1153297777778,25.0741871111111 86.115052,25.0741871111111 86.115052,25.0739093333333 86.1147742222222,25.0739093333333 86.1147742222222,25.0736315555556 86.1144964444444,25.0736315555556 86.1144964444444,25.0733537777778 86.1142186666667,25.0733537777778 86.1142186666667,25.073076 86.1139408888889,25.073076 86.1139408888889,25.0727982222222 86.1136631111111,25.0727982222222 86.1136631111111,25.0725204444444 86.1133853333333,25.0725204444444 86.1133853333333,25.0722426666667 86.1131075555555,25.0722426666667 86.1131075555555,25.0719648888889 86.1128297777778,25.0719648888889 86.1128297777778,25.0716871111111 86.112552,25.0716871111111 86.112552,25.0714093333333 86.1122742222222,25.0714093333333 86.1122742222222,25.0711315555556 86.1119964444444,25.0711315555556 86.1119964444444,25.0708537777778 86.1117186666667,25.0708537777778 86.1117186666667,25.070576 86.1114408888889,25.070576 86.1114408888889,25.0702982222222 86.1111631111111,25.0702982222222 86.1111631111111,25.0700204444444 86.1108853333333,25.0700204444444 86.1108853333333,25.0697426666667 86.1106075555555,25.0697426666667 86.1106075555555,25.0694648888889 86.1103297777778,25.0694648888889 86.1103297777778,25.0691871111111 86.110052,25.0691871111111 86.110052,25.0689093333333 86.1097742222222,25.0689093333333 86.1097742222222,25.0686315555556 86.1094964444444,25.0686315555556 86.1094964444444,25.0683537777778 86.1092186666667,25.0683537777778 86.1092186666667,25.068076 86.1089408888889,25.068076 86.1089408888889,25.0677982222222 86.1086631111111,25.0677982222222 86.1086631111111,25.0675204444444 86.1083853333333,25.0675204444444 86.1083853333333,25.0672426666667 86.1081075555555,25.0672426666667 86.1081075555555,25.0669648888889 86.1078297777778,25.0669648888889 86.1078297777778,25.0666871111111 86.107552,25.0666871111111 86.107552,25.0664093333333 86.1072742222222,25.0664093333333 86.1072742222222,25.0661315555556 86.1069964444444,25.0661315555556 86.1069964444444,25.0658537777778 86.1067186666667,25.0658537777778 86.1067186666667,25.065576 86.1064408888889,25.065576 86.1064408888889,25.0652982222222 86.1061631111111,25.0652982222222 86.1061631111111,25.0650204444444 86.1058853333333,25.0650204444444 86.1058853333333,25.0647426666667 86.1056075555556,25.0647426666667 86.1056075555556,25.0644648888889 86.1053297777778,25.0644648888889 86.1053297777778,25.0641871111111 86.105052,25.0641871111111 86.105052,25.0639093333333 86.1047742222222,25.0639093333333 86.1047742222222,25.0636315555556 86.1044964444444,25.0636315555556 86.1044964444444,25.0633537777778 86.1042186666667,25.0633537777778 86.1042186666667,25.063076 86.1039408888889,25.063076 86.1039408888889,25.0627982222222 86.1036631111111,25.0627982222222 86.1036631111111,25.0625204444444 86.1033853333333,25.0625204444444 86.1033853333333,25.0622426666667 86.1031075555556,25.0622426666667 86.1031075555556,25.0619648888889 86.1028297777778,25.0619648888889 86.1028297777778,25.0616871111111 86.102552,25.0616871111111 86.102552,25.0614093333333 86.1022742222222,25.0614093333333 86.1022742222222,25.0611315555556 86.1019964444444,25.0611315555556 86.1019964444444,25.0608537777778 86.1017186666667,25.0608537777778 86.1017186666667,25.060576 86.1014408888889,25.060576 86.1014408888889,25.0602982222222 86.1011631111111,25.0602982222222 86.1011631111111,25.0600204444444 86.1008853333333,25.0600204444444 86.1008853333333,25.0597426666667 86.1006075555556,25.0597426666667 86.1006075555556,25.0594648888889 86.1003297777778,25.0594648888889 86.1003297777778,25.0591871111111 86.100052,25.0591871111111 86.100052,25.0589093333333 86.0997742222222,25.0589093333333 86.0997742222222,25.0586315555556 86.0994964444444,25.0586315555556 86.0994964444444,25.0583537777778 86.0992186666667,25.0583537777778 86.0992186666667,25.058076 86.0989408888889,25.058076 86.0989408888889,25.0577982222222 86.0986631111111,25.0577982222222 86.0986631111111,25.0575204444444 86.0983853333333,25.0575204444444 86.0983853333333,25.0572426666667 86.0981075555556,25.0572426666667 86.0981075555556,25.0569648888889 86.0978297777778,25.0569648888889 86.0978297777778,25.0566871111111 86.097552,25.0566871111111 86.097552,25.0564093333333 86.0972742222222,25.0564093333333 86.0972742222222,25.0561315555556 86.0969964444444,25.0561315555556 86.0969964444444,25.0558537777778 86.0967186666667,25.0558537777778 86.0967186666667,25.055576 86.0964408888889,25.055576 86.0964408888889,25.0552982222222 86.0961631111111,25.0552982222222 86.0961631111111,25.0550204444444 86.0958853333333,25.0550204444444 86.0958853333333,25.0547426666667 86.0956075555555,25.0547426666667 86.0956075555555,25.0544648888889 86.0953297777778,25.0544648888889 86.0953297777778,25.0541871111111 86.095052,25.0541871111111 86.095052,25.0000204444444 86.2519964444444,25.0000204444444 86.2519964444444,25.0002982222222 86.252552,25.0002982222222 86.252552,25.000576 86.2531075555555,25.000576 86.2531075555555,25.0008537777778 86.2536631111111,25.0008537777778 86.2536631111111,25.000576 86.2533853333333,25.000576 86.2533853333333,25.0002982222222 86.2531075555555,25.0002982222222 86.2531075555555,25.0000204444444 86.3542186666667,25.0000204444444 86.3542186666667,25.0002982222222 86.3544964444444,25.0002982222222 86.3544964444444,25.0000204444444 86.3578297777778,25.0000204444444 86.3578297777778,25.0002982222222 86.3581075555555,25.0002982222222 86.3581075555555,25.0016871111111 86.3583853333333,25.0016871111111 86.3583853333333,25.0019648888889 86.3581075555555,25.0019648888889 86.3581075555555,25.0022426666667 86.3594964444444,25.0022426666667 86.3594964444444,25.0019648888889 86.3592186666667,25.0019648888889 86.3592186666667,25.0016871111111 86.3589408888889,25.0016871111111 86.3589408888889,25.0011315555556 86.3592186666667,25.0011315555556 86.3592186666667,25.0008537777778 86.3589408888889,25.0008537777778 86.3589408888889,25.000576 86.3586631111111,25.000576 86.3586631111111,25.0002982222222 86.3583853333333,25.0002982222222 86.3583853333333,25.0000204444444 86.3728297777778,25.0000204444444 86.3728297777778,25.0002982222222 86.372552,25.0002982222222 86.372552,25.0011315555556 86.3728297777778,25.0011315555556 86.3728297777778,25.0014093333333 86.3722742222222,25.0014093333333 86.3722742222222,25.0016871111111 86.3719964444444,25.0016871111111 86.3719964444444,25.0019648888889 86.3717186666667,25.0019648888889 86.3717186666667,25.0025204444444 86.3714408888889,25.0025204444444 86.3714408888889,25.003076 86.3711631111111,25.003076 86.3711631111111,25.0033537777778 86.3706075555556,25.0033537777778 86.3706075555556,25.0036315555556 86.3703297777778,25.0036315555556 86.3703297777778,25.0033537777778 86.370052,25.0033537777778 86.370052,25.0027982222222 86.3694964444444,25.0027982222222 86.3694964444444,25.0025204444444 86.3692186666667,25.0025204444444 86.3692186666667,25.0022426666667 86.3686631111111,25.0022426666667 86.3686631111111,25.0027982222222 86.3683853333333,25.0027982222222 86.3683853333333,25.0022426666667 86.3681075555556,25.0022426666667 86.3681075555556,25.0025204444444 86.3678297777778,25.0025204444444 86.3678297777778,25.0027982222222 86.3681075555556,25.0027982222222 86.3681075555556,25.003076 86.3683853333333,25.003076 86.3683853333333,25.0033537777778 86.3681075555556,25.0033537777778 86.3681075555556,25.0039093333333 86.3678297777778,25.0039093333333 86.3678297777778,25.0044648888889 86.3681075555556,25.0044648888889 86.3681075555556,25.0047426666667 86.3678297777778,25.0047426666667 86.3678297777778,25.0050204444444 86.3672742222222,25.0050204444444 86.3672742222222,25.0052982222222 86.3664408888889,25.0052982222222 86.3664408888889,25.005576 86.3658853333333,25.005576 86.3658853333333,25.0050204444444 86.3656075555556,25.0050204444444 86.3656075555556,25.0047426666667 86.3658853333333,25.0047426666667 86.3658853333333,25.0039093333333 86.3656075555556,25.0039093333333 86.3656075555556,25.0027982222222 86.3653297777778,25.0027982222222 86.3653297777778,25.003076 86.365052,25.003076 86.365052,25.0033537777778 86.3653297777778,25.0033537777778 86.3653297777778,25.0041871111111 86.365052,25.0041871111111 86.365052,25.0047426666667 86.3647742222222,25.0047426666667 86.3647742222222,25.0050204444444 86.365052,25.0050204444444 86.365052,25.0052982222222 86.3653297777778,25.0052982222222 86.3653297777778,25.0058537777778 86.365052,25.0058537777778 86.365052,25.0061315555556 86.3647742222222,25.0061315555556 86.3647742222222,25.005576 86.3644964444444,25.005576 86.3644964444444,25.0058537777778 86.3639408888889,25.0058537777778 86.3639408888889,25.0064093333333 86.3636631111111,25.0064093333333 86.3636631111111,25.0066871111111 86.3631075555555,25.0066871111111 86.3631075555555,25.0069648888889 86.3622742222222,25.0069648888889 86.3622742222222,25.0066871111111 86.3619964444444,25.0066871111111 86.3619964444444,25.0072426666667 86.3617186666667,25.0072426666667 86.3617186666667,25.0075204444444 86.3608853333333,25.0075204444444 86.3608853333333,25.0077982222222 86.3603297777778,25.0077982222222 86.3603297777778,25.008076 86.3594964444444,25.008076 86.3594964444444,25.0077982222222 86.3589408888889,25.0077982222222 86.3589408888889,25.0072426666667 86.3583853333333,25.0072426666667 86.3583853333333,25.0069648888889 86.3578297777778,25.0069648888889 86.3578297777778,25.0075204444444 86.3581075555555,25.0075204444444 86.3581075555555,25.008076 86.3578297777778,25.008076 86.3578297777778,25.0086315555556 86.357552,25.0086315555556 86.357552,25.0083537777778 86.3572742222222,25.0083537777778 86.3572742222222,25.0075204444444 86.3569964444444,25.0075204444444 86.3569964444444,25.0072426666667 86.3567186666667,25.0072426666667 86.3567186666667,25.0066871111111 86.3569964444444,25.0066871111111 86.3569964444444,25.0064093333333 86.3572742222222,25.0064093333333 86.3572742222222,25.0050204444444 86.357552,25.0050204444444 86.357552,25.0044648888889 86.3569964444444,25.0044648888889 86.3569964444444,25.0041871111111 86.3572742222222,25.0041871111111 86.3572742222222,25.0039093333333 86.3578297777778,25.0039093333333 86.3578297777778,25.0036315555556 86.3581075555555,25.0036315555556 86.3581075555555,25.0033537777778 86.3583853333333,25.0033537777778 86.3583853333333,25.003076 86.3586631111111,25.003076 86.3586631111111,25.0027982222222 86.3583853333333,25.0027982222222 86.3583853333333,25.0025204444444 86.3578297777778,25.0025204444444 86.3578297777778,25.0027982222222 86.357552,25.0027982222222 86.357552,25.0025204444444 86.3567186666667,25.0025204444444 86.3567186666667,25.0027982222222 86.3561631111111,25.0027982222222 86.3561631111111,25.0025204444444 86.3558853333333,25.0025204444444 86.3558853333333,25.0022426666667 86.3556075555556,25.0022426666667 86.3556075555556,25.0019648888889 86.3558853333333,25.0019648888889 86.3558853333333,25.0016871111111 86.3556075555556,25.0016871111111 86.3556075555556,25.0011315555556 86.355052,25.0011315555556 86.355052,25.0008537777778 86.3547742222222,25.0008537777778 86.3547742222222,25.0011315555556 86.3544964444444,25.0011315555556 86.3544964444444,25.0025204444444 86.3542186666667,25.0025204444444 86.3542186666667,25.0022426666667 86.3539408888889,25.0022426666667 86.3539408888889,25.0019648888889 86.3536631111111,25.0019648888889 86.3536631111111,25.003076 86.3539408888889,25.003076 86.3539408888889,25.0033537777778 86.3542186666667,25.0033537777778 86.3542186666667,25.0039093333333 86.355052,25.0039093333333 86.355052,25.0041871111111 86.3553297777778,25.0041871111111 86.3553297777778,25.0044648888889 86.3556075555556,25.0044648888889 86.3556075555556,25.0050204444444 86.3558853333333,25.0050204444444 86.3558853333333,25.0052982222222 86.3556075555556,25.0052982222222 86.3556075555556,25.005576 86.3558853333333,25.005576 86.3558853333333,25.0058537777778 86.3556075555556,25.0058537777778 86.3556075555556,25.0061315555556 86.3553297777778,25.0061315555556 86.3553297777778,25.0058537777778 86.3547742222222,25.0058537777778 86.3547742222222,25.005576 86.3542186666667,25.005576 86.3542186666667,25.0052982222222 86.3539408888889,25.0052982222222 86.3539408888889,25.005576 86.3536631111111,25.005576 86.3536631111111,25.0052982222222 86.3533853333333,25.0052982222222 86.3533853333333,25.0041871111111 86.3522742222222,25.0041871111111 86.3522742222222,25.0039093333333 86.3519964444444,25.0039093333333 86.3519964444444,25.0041871111111 86.3506075555556,25.0041871111111 86.3506075555556,25.0047426666667 86.3508853333333,25.0047426666667 86.3508853333333,25.0050204444444 86.3511631111111,25.0050204444444 86.3511631111111,25.0052982222222 86.3517186666667,25.0052982222222 86.3517186666667,25.005576 86.3519964444444,25.005576 86.3519964444444,25.0058537777778 86.3528297777778,25.0058537777778 86.3528297777778,25.0064093333333 86.3531075555556,25.0064093333333 86.3531075555556,25.0066871111111 86.3533853333333,25.0066871111111 86.3533853333333,25.0069648888889 86.3536631111111,25.0069648888889 86.3536631111111,25.0075204444444 86.3539408888889,25.0075204444444 86.3539408888889,25.0077982222222 86.3542186666667,25.0077982222222 86.3542186666667,25.0083537777778 86.3536631111111,25.0083537777778 86.3536631111111,25.008076 86.3533853333333,25.008076 86.3533853333333,25.0077982222222 86.3528297777778,25.0077982222222 86.3528297777778,25.008076 86.352552,25.008076 86.352552,25.0083537777778 86.3522742222222,25.0083537777778 86.3522742222222,25.0089093333333 86.352552,25.0089093333333 86.352552,25.0094648888889 86.3536631111111,25.0094648888889 86.3536631111111,25.0097426666667 86.3539408888889,25.0097426666667 86.3539408888889,25.0100204444444 86.3542186666667,25.0100204444444 86.3542186666667,25.0102982222222 86.3539408888889,25.0102982222222 86.3539408888889,25.010576 86.3533853333333,25.010576 86.3533853333333,25.0108537777778 86.352552,25.0108537777778 86.352552,25.0111315555556 86.3519964444444,25.0111315555556 86.3519964444444,25.0114093333333 86.3511631111111,25.0114093333333 86.3511631111111,25.0116871111111 86.3506075555556,25.0116871111111 86.3506075555556,25.0119648888889 86.3494964444444,25.0119648888889 86.3494964444444,25.0116871111111 86.3492186666667,25.0116871111111 86.3492186666667,25.0108537777778 86.3489408888889,25.0108537777778 86.3489408888889,25.010576 86.3486631111111,25.010576 86.3486631111111,25.0108537777778 86.3483853333333,25.0108537777778 86.3483853333333,25.0111315555556 86.3481075555556,25.0111315555556 86.3481075555556,25.0114093333333 86.3478297777778,25.0114093333333 86.3478297777778,25.0111315555556 86.347552,25.0111315555556 86.347552,25.0108537777778 86.3472742222222,25.0108537777778 86.3472742222222,25.010576 86.3478297777778,25.010576 86.3478297777778,25.0097426666667 86.3481075555556,25.0097426666667 86.3481075555556,25.0091871111111 86.347552,25.0091871111111 86.347552,25.0089093333333 86.3486631111111,25.0089093333333 86.3486631111111,25.0094648888889 86.3492186666667,25.0094648888889 86.3492186666667,25.0064093333333 86.3481075555556,25.0064093333333 86.3481075555556,25.0066871111111 86.3478297777778,25.0066871111111 86.3478297777778,25.0064093333333 86.347552,25.0064093333333 86.347552,25.0066871111111 86.3469964444444,25.0066871111111 86.3469964444444,25.0061315555556 86.3464408888889,25.0061315555556 86.3464408888889,25.0058537777778 86.3458853333333,25.0058537777778 86.3458853333333,25.005576 86.345052,25.005576 86.345052,25.0058537777778 86.3447742222222,25.0058537777778 86.3447742222222,25.0064093333333 86.3439408888889,25.0064093333333 86.3439408888889,25.0061315555556 86.3433853333333,25.0061315555556 86.3433853333333,25.0058537777778 86.3431075555555,25.0058537777778 86.3431075555555,25.0061315555556 86.3428297777778,25.0061315555556 86.3428297777778,25.0058537777778 86.3403297777778,25.0058537777778 86.3403297777778,25.005576 86.340052,25.005576 86.340052,25.0058537777778 86.3397742222222,25.0058537777778 86.3397742222222,25.005576 86.3394964444444,25.005576 86.3394964444444,25.0077982222222 86.3392186666667,25.0077982222222 86.3392186666667,25.008076 86.3389408888889,25.008076 86.3389408888889,25.0086315555556 86.3381075555556,25.0086315555556 86.3381075555556,25.0089093333333 86.3378297777778,25.0089093333333 86.3378297777778,25.0086315555556 86.337552,25.0086315555556 86.337552,25.0089093333333 86.3372742222222,25.0089093333333 86.3372742222222,25.0094648888889 86.3369964444444,25.0094648888889 86.3369964444444,25.0100204444444 86.3386631111111,25.0100204444444 86.3386631111111,25.0102982222222 86.3392186666667,25.0102982222222 86.3392186666667,25.010576 86.3397742222222,25.010576 86.3397742222222,25.0102982222222 86.340052,25.0102982222222 86.340052,25.0100204444444 86.3403297777778,25.0100204444444 86.3403297777778,25.0102982222222 86.3411631111111,25.0102982222222 86.3411631111111,25.010576 86.3417186666667,25.010576 86.3417186666667,25.0111315555556 86.3411631111111,25.0111315555556 86.3411631111111,25.0114093333333 86.340052,25.0114093333333 86.340052,25.0116871111111 86.3397742222222,25.0116871111111 86.3397742222222,25.0114093333333 86.3394964444444,25.0114093333333 86.3394964444444,25.0116871111111 86.3389408888889,25.0116871111111 86.3389408888889,25.0119648888889 86.3386631111111,25.0119648888889 86.3386631111111,25.0125204444444 86.3383853333333,25.0125204444444 86.3383853333333,25.0127982222222 86.3381075555556,25.0127982222222 86.3381075555556,25.0125204444444 86.3378297777778,25.0125204444444 86.3378297777778,25.013076 86.337552,25.013076 86.337552,25.0133537777778 86.3367186666667,25.0133537777778 86.3367186666667,25.013076 86.3361631111111,25.013076 86.3361631111111,25.0133537777778 86.3358853333333,25.0133537777778 86.3358853333333,25.013076 86.3353297777778,25.013076 86.3353297777778,25.0127982222222 86.3356075555556,25.0127982222222 86.3356075555556,25.0125204444444 86.3347742222222,25.0125204444444 86.3347742222222,25.0122426666667 86.3344964444444,25.0122426666667 86.3344964444444,25.0125204444444 86.3339408888889,25.0125204444444 86.3339408888889,25.0127982222222 86.3328297777778,25.0127982222222 86.3328297777778,25.0125204444444 86.3322742222222,25.0125204444444 86.3322742222222,25.013076 86.3319964444444,25.013076 86.3319964444444,25.0133537777778 86.3308853333333,25.0133537777778 86.3308853333333,25.013076 86.3303297777778,25.013076 86.3303297777778,25.0136315555556 86.330052,25.0136315555556 86.330052,25.0139093333333 86.3297742222222,25.0139093333333 86.3297742222222,25.0141871111111 86.3292186666667,25.0141871111111 86.3292186666667,25.0144648888889 86.3286631111111,25.0144648888889 86.3286631111111,25.0150204444444 86.3283853333333,25.0150204444444 86.3283853333333,25.0158537777778 86.3278297777778,25.0158537777778 86.3278297777778,25.015576 86.3272742222222,25.015576 86.3272742222222,25.0150204444444 86.3269964444444,25.0150204444444 86.3269964444444,25.0161315555556 86.3264408888889,25.0161315555556 86.3264408888889,25.0164093333333 86.3261631111111,25.0164093333333 86.3261631111111,25.0158537777778 86.3264408888889,25.0158537777778 86.3264408888889,25.015576 86.3258853333333,25.015576 86.3258853333333,25.0152982222222 86.3261631111111,25.0152982222222 86.3261631111111,25.0147426666667 86.3258853333333,25.0147426666667 86.3258853333333,25.0144648888889 86.3253297777778,25.0144648888889 86.3253297777778,25.0139093333333 86.3256075555555,25.0139093333333 86.3256075555555,25.0136315555556 86.3253297777778,25.0136315555556 86.3253297777778,25.0125204444444 86.325052,25.0125204444444 86.325052,25.0122426666667 86.3236631111111,25.0122426666667 86.3236631111111,25.0125204444444 86.3231075555556,25.0125204444444 86.3231075555556,25.013076 86.322552,25.013076 86.322552,25.0133537777778 86.3219964444444,25.0133537777778 86.3219964444444,25.0141871111111 86.3222742222222,25.0141871111111 86.3222742222222,25.0147426666667 86.3219964444444,25.0147426666667 86.3219964444444,25.0152982222222 86.3217186666667,25.0152982222222 86.3217186666667,25.0161315555556 86.3211631111111,25.0161315555556 86.3211631111111,25.0158537777778 86.3208853333333,25.0158537777778 86.3208853333333,25.015576 86.3206075555556,25.015576 86.3206075555556,25.0152982222222 86.320052,25.0152982222222 86.320052,25.015576 86.3197742222222,25.015576 86.3197742222222,25.0150204444444 86.3194964444444,25.0150204444444 86.3194964444444,25.0141871111111 86.3192186666667,25.0141871111111 86.3192186666667,25.0147426666667 86.3189408888889,25.0147426666667 86.3189408888889,25.0141871111111 86.3186631111111,25.0141871111111 86.3186631111111,25.0139093333333 86.3183853333333,25.0139093333333 86.3183853333333,25.0133537777778 86.3178297777778,25.0133537777778 86.3178297777778,25.013076 86.3172742222222,25.013076 86.3172742222222,25.0133537777778 86.317552,25.0133537777778 86.317552,25.0136315555556 86.3169964444444,25.0136315555556 86.3169964444444,25.0139093333333 86.3164408888889,25.0139093333333 86.3164408888889,25.0141871111111 86.3161631111111,25.0141871111111 86.3161631111111,25.0144648888889 86.3158853333333,25.0144648888889 86.3158853333333,25.0147426666667 86.3167186666667,25.0147426666667 86.3167186666667,25.0161315555556 86.3158853333333,25.0161315555556 86.3158853333333,25.0158537777778 86.3156075555555,25.0158537777778 86.3156075555555,25.015576 86.3153297777778,25.015576 86.3153297777778,25.0152982222222 86.3144964444444,25.0152982222222 86.3144964444444,25.0150204444444 86.3136631111111,25.0150204444444 86.3136631111111,25.0152982222222 86.3139408888889,25.0152982222222 86.3139408888889,25.015576 86.3136631111111,25.015576 86.3136631111111,25.0158537777778 86.3131075555555,25.0158537777778 86.3131075555555,25.0169648888889 86.3133853333333,25.0169648888889 86.3133853333333,25.0175204444444 86.3136631111111,25.0175204444444 86.3136631111111,25.0183537777778 86.3139408888889,25.0183537777778 86.3139408888889,25.0186315555556 86.3131075555555,25.0186315555556 86.3131075555555,25.0189093333333 86.3133853333333,25.0189093333333 86.3133853333333,25.0191871111111 86.3131075555555,25.0191871111111 86.3131075555555,25.0200204444444 86.3119964444444,25.0200204444444 86.3119964444444,25.0197426666667 86.3117186666667,25.0197426666667 86.3117186666667,25.0200204444444 86.3114408888889,25.0200204444444 86.3114408888889,25.0197426666667 86.3111631111111,25.0197426666667 86.3111631111111,25.0200204444444 86.3108853333333,25.0200204444444 86.3108853333333,25.0202982222222 86.3111631111111,25.0202982222222 86.3111631111111,25.0216871111111 86.3114408888889,25.0216871111111 86.3114408888889,25.0219648888889 86.3117186666667,25.0219648888889 86.3117186666667,25.0222426666667 86.3111631111111,25.0222426666667 86.3111631111111,25.0219648888889 86.3106075555555,25.0219648888889 86.3106075555555,25.0222426666667 86.3108853333333,25.0222426666667 86.3108853333333,25.0225204444444 86.310052,25.0225204444444 86.310052,25.023076 86.3103297777778,25.023076 86.3103297777778,25.0233537777778 86.3111631111111,25.0233537777778 86.3111631111111,25.0236315555556 86.3108853333333,25.0236315555556 86.3108853333333,25.0241871111111 86.3111631111111,25.0241871111111 86.3111631111111,25.0244648888889 86.3103297777778,25.0244648888889 86.3103297777778,25.0241871111111 86.310052,25.0241871111111 86.310052,25.0239093333333 86.3097742222222,25.0239093333333 86.3097742222222,25.0236315555556 86.3089408888889,25.0236315555556 86.3089408888889,25.0241871111111 86.3086631111111,25.0241871111111 86.3086631111111,25.0239093333333 86.3083853333333,25.0239093333333 86.3083853333333,25.0236315555556 86.307552,25.0236315555556 86.307552,25.0239093333333 86.3072742222222,25.0239093333333 86.3072742222222,25.0244648888889 86.3069964444444,25.0244648888889 86.3069964444444,25.0247426666667 86.3067186666667,25.0247426666667 86.3067186666667,25.0244648888889 86.3064408888889,25.0244648888889 86.3064408888889,25.0241871111111 86.3058853333333,25.0241871111111 86.3058853333333,25.0239093333333 86.3053297777778,25.0239093333333 86.3053297777778,25.0247426666667 86.3056075555556,25.0247426666667 86.3056075555556,25.0250204444444 86.3058853333333,25.0250204444444 86.3058853333333,25.0252982222222 86.3061631111111,25.0252982222222 86.3061631111111,25.025576 86.3069964444444,25.025576 86.3069964444444,25.0258537777778 86.307552,25.0258537777778 86.307552,25.0264093333333 86.3069964444444,25.0264093333333 86.3069964444444,25.0269648888889 86.3067186666667,25.0269648888889 86.3067186666667,25.0272426666667 86.3069964444444,25.0272426666667 86.3069964444444,25.0275204444444 86.3072742222222,25.0275204444444 86.3072742222222,25.0277982222222 86.307552,25.0277982222222 86.307552,25.028076 86.3078297777778,25.028076 86.3078297777778,25.0286315555556 86.3069964444444,25.0286315555556 86.3069964444444,25.0283537777778 86.3064408888889,25.0283537777778 86.3064408888889,25.028076 86.3058853333333,25.028076 86.3058853333333,25.0277982222222 86.3056075555556,25.0277982222222 86.3056075555556,25.0275204444444 86.3053297777778,25.0275204444444 86.3053297777778,25.0277982222222 86.305052,25.0277982222222 86.305052,25.028076 86.3042186666667,25.028076 86.3042186666667,25.0277982222222 86.302552,25.0277982222222 86.302552,25.0286315555556 86.3028297777778,25.0286315555556 86.3028297777778,25.0291871111111 86.3033853333333,25.0291871111111 86.3033853333333,25.0294648888889 86.3039408888889,25.0294648888889 86.3039408888889,25.0297426666667 86.3036631111111,25.0297426666667 86.3036631111111,25.0300204444444 86.3033853333333,25.0300204444444 86.3033853333333,25.0302982222222 86.3031075555556,25.0302982222222 86.3031075555556,25.030576 86.3028297777778,25.030576 86.3028297777778,25.0300204444444 86.3022742222222,25.0300204444444 86.3022742222222,25.0297426666667 86.3006075555555,25.0297426666667 86.3006075555555,25.0300204444444 86.2997742222222,25.0300204444444 86.2997742222222,25.0297426666667 86.2994964444444,25.0297426666667 86.2994964444444,25.0294648888889 86.2989408888889,25.0294648888889 86.2989408888889,25.0291871111111 86.2983853333333,25.0291871111111 86.2983853333333,25.0294648888889 86.2978297777778,25.0294648888889 86.2978297777778,25.0300204444444 86.2981075555555,25.0300204444444 86.2981075555555,25.030576 86.2978297777778,25.030576 86.2978297777778,25.0308537777778 86.297552,25.0308537777778 86.297552,25.0311315555556 86.2967186666667,25.0311315555556 86.2967186666667,25.0314093333333 86.2961631111111,25.0314093333333 86.2961631111111,25.0316871111111 86.2958853333333,25.0316871111111 86.2958853333333,25.0319648888889 86.2953297777778,25.0319648888889 86.2953297777778,25.0322426666667 86.2942186666667,25.0322426666667 86.2942186666667,25.0325204444444 86.2931075555556,25.0325204444444 86.2931075555556,25.0314093333333 86.2928297777778,25.0314093333333 86.2928297777778,25.0291871111111 86.292552,25.0291871111111 86.292552,25.0283537777778 86.2922742222222,25.0283537777778 86.2922742222222,25.028076 86.2919964444444,25.028076 86.2919964444444,25.0277982222222 86.2917186666667,25.0277982222222 86.2917186666667,25.0272426666667 86.2914408888889,25.0272426666667 86.2914408888889,25.0269648888889 86.2911631111111,25.0269648888889 86.2911631111111,25.0266871111111 86.2908853333333,25.0266871111111 86.2908853333333,25.0264093333333 86.2903297777778,25.0264093333333 86.2903297777778,25.0261315555556 86.290052,25.0261315555556 86.290052,25.0258537777778 86.2894964444444,25.0258537777778 86.2894964444444,25.025576 86.2889408888889,25.025576 86.2889408888889,25.0252982222222 86.2886631111111,25.0252982222222 86.2886631111111,25.0247426666667 86.2883853333333,25.0247426666667 86.2883853333333,25.0244648888889 86.2881075555556,25.0244648888889 86.2881075555556,25.0241871111111 86.2878297777778,25.0241871111111 86.2878297777778,25.0239093333333 86.2869964444444,25.0239093333333 86.2869964444444,25.0236315555556 86.2864408888889,25.0236315555556 86.2864408888889,25.0239093333333 86.285052,25.0239093333333 86.285052,25.0233537777778 86.2853297777778,25.0233537777778 86.2853297777778,25.023076 86.2847742222222,25.023076 86.2847742222222,25.0225204444444 86.2844964444444,25.0225204444444 86.2844964444444,25.0227982222222 86.2836631111111,25.0227982222222 86.2836631111111,25.023076 86.2833853333333,25.023076 86.2833853333333,25.0227982222222 86.2831075555555,25.0227982222222 86.2831075555555,25.0225204444444 86.2794964444444,25.0225204444444 86.2794964444444,25.0222426666667 86.2792186666667,25.0222426666667 86.2792186666667,25.0216871111111 86.2789408888889,25.0216871111111 86.2789408888889,25.0214093333333 86.2783853333333,25.0214093333333 86.2783853333333,25.0211315555556 86.2786631111111,25.0211315555556 86.2786631111111,25.0208537777778 86.2778297777778,25.0208537777778 86.2778297777778,25.020576 86.2772742222222,25.020576 86.2772742222222,25.0202982222222 86.2767186666667,25.0202982222222 86.2767186666667,25.020576 86.2764408888889,25.020576 86.2764408888889,25.0202982222222 86.2758853333333,25.0202982222222 86.2758853333333,25.0200204444444 86.2753297777778,25.0200204444444 86.2753297777778,25.0197426666667 86.2744964444444,25.0197426666667 86.2744964444444,25.0194648888889 86.2733853333333,25.0194648888889 86.2733853333333,25.0191871111111 86.2731075555556,25.0191871111111 86.2731075555556,25.0186315555556 86.272552,25.0186315555556 86.272552,25.0183537777778 86.270052,25.0183537777778 86.270052,25.018076 86.2692186666667,25.018076 86.2692186666667,25.0177982222222 86.2686631111111,25.0177982222222 86.2686631111111,25.0175204444444 86.2672742222222,25.0175204444444 86.2672742222222,25.0172426666667 86.2669964444444,25.0172426666667 86.2669964444444,25.0175204444444 86.2664408888889,25.0175204444444 86.2664408888889,25.0172426666667 86.2653297777778,25.0172426666667 86.2653297777778,25.0169648888889 86.265052,25.0169648888889 86.265052,25.0166871111111 86.2647742222222,25.0166871111111 86.2647742222222,25.0164093333333 86.2644964444444,25.0164093333333 86.2644964444444,25.0161315555556 86.2642186666667,25.0161315555556 86.2642186666667,25.0150204444444 86.2639408888889,25.0150204444444 86.2639408888889,25.0147426666667 86.2636631111111,25.0147426666667 86.2636631111111,25.0144648888889 86.262552,25.0144648888889 86.262552,25.0150204444444 86.2622742222222,25.0150204444444 86.2622742222222,25.0152982222222 86.2619964444444,25.0152982222222 86.2619964444444,25.0150204444444 86.2614408888889,25.0150204444444 86.2614408888889,25.0152982222222 86.2611631111111,25.0152982222222 86.2611631111111,25.0150204444444 86.2606075555556,25.0150204444444 86.2606075555556,25.0147426666667 86.2603297777778,25.0147426666667 86.2603297777778,25.0150204444444 86.260052,25.0150204444444 86.260052,25.0147426666667 86.2589408888889,25.0147426666667 86.2589408888889,25.0141871111111 86.2586631111111,25.0141871111111 86.2586631111111,25.0139093333333 86.2583853333333,25.0139093333333 86.2583853333333,25.0136315555556 86.257552,25.0136315555556 86.257552,25.0133537777778 86.2569964444444,25.0133537777778 86.2569964444444,25.013076 86.2553297777778,25.013076 86.2553297777778,25.0133537777778 86.255052,25.0133537777778 86.255052,25.013076 86.2544964444444,25.013076 86.2544964444444,25.0133537777778 86.2536631111111,25.0133537777778 86.2536631111111,25.013076 86.2533853333333,25.013076 86.2533853333333,25.0133537777778 86.2517186666667,25.0133537777778 86.2517186666667,25.0136315555556 86.2511631111111,25.0136315555556 86.2511631111111,25.0139093333333 86.2483853333333,25.0139093333333 86.2483853333333,25.0141871111111 86.2478297777778,25.0141871111111 86.2478297777778,25.0144648888889 86.2467186666667,25.0144648888889 86.2467186666667,25.0147426666667 86.2456075555556,25.0147426666667 86.2456075555556,25.0150204444444 86.2436631111111,25.0150204444444 86.2436631111111,25.0152982222222 86.2419964444444,25.0152982222222 86.2419964444444,25.015576 86.2411631111111,25.015576 86.2411631111111,25.0152982222222 86.2397742222222,25.0152982222222 86.2397742222222,25.015576 86.2394964444444,25.015576 86.2394964444444,25.0158537777778 86.2392186666667,25.0158537777778 86.2392186666667,25.0164093333333 86.2389408888889,25.0164093333333 86.2389408888889,25.0166871111111 86.2378297777778,25.0166871111111 86.2378297777778,25.0169648888889 86.2372742222222,25.0169648888889 86.2372742222222,25.0172426666667 86.2369964444444,25.0172426666667 86.2369964444444,25.0175204444444 86.2364408888889,25.0175204444444 86.2364408888889,25.0177982222222 86.2361631111111,25.0177982222222 86.2361631111111,25.018076 86.2356075555555,25.018076 86.2356075555555,25.0183537777778 86.2353297777778,25.0183537777778 86.2353297777778,25.0186315555556 86.235052,25.0186315555556 86.235052,25.0189093333333 86.2344964444444,25.0189093333333 86.2344964444444,25.0191871111111 86.2342186666667,25.0191871111111 86.2342186666667,25.0194648888889 86.2339408888889,25.0194648888889 86.2339408888889,25.0200204444444 86.2336631111111,25.0200204444444 86.2336631111111,25.020576 86.2339408888889,25.020576 86.2339408888889,25.0208537777778 86.2342186666667,25.0208537777778 86.2342186666667,25.0214093333333 86.2339408888889,25.0214093333333 86.2339408888889,25.0211315555556 86.2331075555555,25.0211315555556 86.2331075555555,25.0214093333333 86.2328297777778,25.0214093333333 86.2328297777778,25.0219648888889 86.232552,25.0219648888889 86.232552,25.0222426666667 86.2328297777778,25.0222426666667 86.2328297777778,25.023076 86.232552,25.023076 86.232552,25.0236315555556 86.2322742222222,25.0236315555556 86.2322742222222,25.0241871111111 86.2319964444444,25.0241871111111 86.2319964444444,25.025576 86.2314408888889,25.025576 86.2314408888889,25.0258537777778 86.2308853333333,25.0258537777778 86.2308853333333,25.0264093333333 86.2306075555556,25.0264093333333 86.2306075555556,25.0269648888889 86.2303297777778,25.0269648888889 86.2303297777778,25.0277982222222 86.230052,25.0277982222222 86.230052,25.0286315555556 86.2303297777778,25.0286315555556 86.2303297777778,25.0291871111111 86.230052,25.0291871111111 86.230052,25.0322426666667 86.2303297777778,25.0322426666667 86.2303297777778,25.0333537777778 86.2306075555556,25.0333537777778 86.2306075555556,25.0339093333333 86.2311631111111,25.0339093333333 86.2311631111111,25.0341871111111 86.2317186666667,25.0341871111111 86.2317186666667,25.0344648888889 86.2319964444444,25.0344648888889 86.2319964444444,25.0347426666667 86.232552,25.0347426666667 86.232552,25.0350204444444 86.2328297777778,25.0350204444444 86.2328297777778,25.035576 86.2319964444444,25.035576 86.2319964444444,25.0358537777778 86.2317186666667,25.0358537777778 86.2317186666667,25.0361315555556 86.2311631111111,25.0361315555556 86.2311631111111,25.0364093333333 86.2308853333333,25.0364093333333 86.2308853333333,25.0366871111111 86.2306075555556,25.0366871111111 86.2306075555556,25.0369648888889 86.2303297777778,25.0369648888889 86.2303297777778,25.038076 86.2306075555556,25.038076 86.2306075555556,25.0386315555556 86.2308853333333,25.0386315555556 86.2308853333333,25.0389093333333 86.2311631111111,25.0389093333333 86.2311631111111,25.0391871111111 86.2314408888889,25.0391871111111 86.2314408888889,25.0394648888889 86.2317186666667,25.0394648888889 86.2317186666667,25.0397426666667 86.2319964444444,25.0397426666667 86.2319964444444,25.0400204444444 86.2328297777778,25.0400204444444 86.2328297777778,25.0402982222222 86.2342186666667,25.0402982222222 86.2342186666667,25.040576 86.237552,25.040576 86.237552,25.0402982222222 86.2378297777778,25.0402982222222 86.2378297777778,25.0408537777778 86.237552,25.0408537777778 86.237552,25.0411315555556 86.2372742222222,25.0411315555556 86.2372742222222,25.0414093333333 86.2369964444444,25.0414093333333 86.2369964444444,25.0411315555556 86.2364408888889,25.0411315555556 86.2364408888889,25.0414093333333 86.2361631111111,25.0414093333333 86.2361631111111,25.0416871111111 86.2358853333333,25.0416871111111 86.2358853333333,25.0414093333333 86.2344964444444,25.0414093333333 86.2344964444444,25.0416871111111 86.2336631111111,25.0416871111111 86.2336631111111,25.0419648888889 86.2333853333333,25.0419648888889 86.2333853333333,25.0427982222222 86.2336631111111,25.0427982222222 86.2336631111111,25.043076 86.2339408888889,25.043076 86.2339408888889,25.0436315555556 86.232552,25.0436315555556 86.232552,25.0433537777778 86.2319964444444,25.0433537777778 86.2319964444444,25.043076 86.2314408888889,25.043076 86.2314408888889,25.0427982222222 86.2311631111111,25.0427982222222 86.2311631111111,25.043076 86.2306075555556,25.043076 86.2306075555556,25.0441871111111 86.2303297777778,25.0441871111111 86.2303297777778,25.0444648888889 86.2297742222222,25.0444648888889 86.2297742222222,25.0447426666667 86.2294964444444,25.0447426666667 86.2294964444444,25.0452982222222 86.2292186666667,25.0452982222222 86.2292186666667,25.045576 86.2286631111111,25.045576 86.2286631111111,25.0452982222222 86.2281075555556,25.0452982222222 86.2281075555556,25.045576 86.2278297777778,25.045576 86.2278297777778,25.0450204444444 86.227552,25.0450204444444 86.227552,25.0447426666667 86.2272742222222,25.0447426666667 86.2272742222222,25.0444648888889 86.2269964444444,25.0444648888889 86.2269964444444,25.0441871111111 86.2256075555556,25.0441871111111 86.2256075555556,25.0436315555556 86.225052,25.0436315555556 86.225052,25.0439093333333 86.2244964444444,25.0439093333333 86.2244964444444,25.0436315555556 86.2242186666667,25.0436315555556 86.2242186666667,25.0439093333333 86.2239408888889,25.0439093333333 86.2239408888889,25.0441871111111 86.2236631111111,25.0441871111111 86.2236631111111,25.0450204444444 86.2231075555556,25.0450204444444 86.2231075555556,25.0452982222222 86.2228297777778,25.0452982222222 86.2228297777778,25.0458537777778 86.222552,25.0458537777778 86.222552,25.0464093333333 86.2222742222222,25.0464093333333 86.2222742222222,25.0469648888889 86.2219964444444,25.0469648888889 86.2219964444444,25.0483537777778 86.2222742222222,25.0483537777778 86.2222742222222,25.0486315555556 86.222552,25.0486315555556 86.222552,25.0489093333333 86.2222742222222,25.0489093333333 86.2222742222222,25.0491871111111 86.2217186666667,25.0491871111111 86.2217186666667,25.0494648888889 86.2214408888889,25.0494648888889 86.2214408888889,25.0500204444444 86.2211631111111,25.0500204444444 86.2211631111111,25.0514093333333 86.2214408888889,25.0514093333333 86.2214408888889,25.0522426666667 86.2217186666667,25.0522426666667 86.2217186666667,25.0527982222222 86.2219964444444,25.0527982222222 86.2219964444444,25.053076 86.2222742222222,25.053076 86.2222742222222,25.0533537777778 86.222552,25.0533537777778 86.222552,25.0536315555556 86.2233853333333,25.0536315555556 86.2233853333333,25.0539093333333 86.2242186666667,25.0539093333333 86.2242186666667,25.0536315555556 86.2244964444444,25.0536315555556 86.2244964444444,25.0539093333333 86.2247742222222,25.0539093333333 86.2247742222222,25.0541871111111 86.2253297777778,25.0541871111111 86.2253297777778,25.0539093333333 86.2267186666667,25.0539093333333 86.2267186666667,25.0541871111111 86.2283853333333,25.0541871111111 86.2283853333333,25.0539093333333 86.2297742222222,25.0539093333333 86.2297742222222,25.0541871111111 86.2303297777778,25.0541871111111 86.2303297777778,25.0544648888889 86.2294964444444,25.0544648888889 86.2294964444444,25.0541871111111 86.2289408888889,25.0541871111111 86.2289408888889,25.0544648888889 86.2283853333333,25.0544648888889 86.2283853333333,25.0547426666667 86.2278297777778,25.0547426666667 86.2278297777778,25.0550204444444 86.227552,25.0550204444444 86.227552,25.0552982222222 86.2258853333333,25.0552982222222 86.2258853333333,25.055576 86.2256075555556,25.055576 86.2256075555556,25.0564093333333 86.2244964444444,25.0564093333333 86.2244964444444,25.0566871111111 86.2242186666667,25.0566871111111 86.2242186666667,25.0572426666667 86.2239408888889,25.0572426666667 86.2239408888889,25.0575204444444 86.2244964444444,25.0575204444444 86.2244964444444,25.0577982222222 86.2253297777778,25.0577982222222 86.2253297777778,25.058076 86.2264408888889,25.058076 86.2264408888889,25.0583537777778 86.2272742222222,25.0583537777778 86.2272742222222,25.058076 86.227552,25.058076 86.227552,25.0583537777778 86.2283853333333,25.0583537777778 86.2283853333333,25.0586315555556 86.227552,25.0586315555556 86.227552,25.0589093333333 86.2272742222222,25.0589093333333 86.2272742222222,25.0594648888889 86.227552,25.0594648888889 86.227552,25.0597426666667 86.2269964444444,25.0597426666667 86.2269964444444,25.0600204444444 86.2264408888889,25.0600204444444 86.2264408888889,25.0602982222222 86.2267186666667,25.0602982222222 86.2267186666667,25.0608537777778 86.225052,25.0608537777778 86.225052,25.060576 86.2244964444444,25.060576 86.2244964444444,25.0608537777778 86.2242186666667,25.0608537777778 86.2242186666667,25.0616871111111 86.225052,25.0616871111111 86.225052,25.0619648888889 86.2247742222222,25.0619648888889 86.2247742222222,25.0622426666667 86.2242186666667,25.0622426666667 86.2242186666667,25.0625204444444 86.2233853333333,25.0625204444444 86.2233853333333,25.0627982222222 86.2228297777778,25.0627982222222 86.2228297777778,25.063076 86.2219964444444,25.063076 86.2219964444444,25.0633537777778 86.2214408888889,25.0633537777778 86.2214408888889,25.0636315555556 86.2206075555555,25.0636315555556 86.2206075555555,25.0639093333333 86.220052,25.0639093333333 86.220052,25.0641871111111 86.2192186666667,25.0641871111111 86.2192186666667,25.0644648888889 86.2186631111111,25.0644648888889 86.2186631111111,25.0647426666667 86.2178297777778,25.0647426666667 86.2178297777778,25.0650204444444 86.2172742222222,25.0650204444444 86.2172742222222,25.0652982222222 86.2164408888889,25.0652982222222 86.2164408888889,25.065576 86.2158853333333,25.065576 86.2158853333333,25.0658537777778 86.215052,25.0658537777778 86.215052,25.0661315555556 86.2144964444444,25.0661315555556 86.2144964444444,25.0664093333333 86.2136631111111,25.0664093333333 86.2136631111111,25.0666871111111 86.2131075555556,25.0666871111111 86.2131075555556,25.0669648888889 86.2122742222222,25.0669648888889 86.2122742222222,25.0672426666667 86.2117186666667,25.0672426666667 86.2117186666667,25.0675204444444 86.2108853333333,25.0675204444444 86.2108853333333,25.0677982222222 86.2103297777778,25.0677982222222 86.2103297777778,25.068076 86.2094964444444,25.068076 86.2094964444444,25.0683537777778 86.2089408888889,25.0683537777778 86.2089408888889,25.0686315555556 86.2081075555556,25.0686315555556 86.2081075555556,25.0689093333333 86.207552,25.0689093333333 86.207552,25.0691871111111 86.2067186666667,25.0691871111111 86.2067186666667,25.0694648888889 86.2061631111111,25.0694648888889 86.2061631111111,25.0697426666667 86.2053297777778,25.0697426666667 86.2053297777778,25.0700204444444 86.2047742222222,25.0700204444444 86.2047742222222,25.0702982222222 86.2039408888889,25.0702982222222 86.2039408888889,25.070576 86.2033853333333,25.070576 86.2033853333333,25.0708537777778 86.202552,25.0708537777778 86.202552,25.0711315555556 86.2019964444444,25.0711315555556 86.2019964444444,25.0714093333333 86.2011631111111,25.0714093333333 86.2011631111111,25.0716871111111 86.2006075555555,25.0716871111111 86.2006075555555,25.0719648888889 86.1997742222222,25.0719648888889 86.1997742222222,25.0722426666667 86.1992186666667,25.0722426666667 86.1992186666667,25.0725204444444 86.1983853333333,25.0725204444444 86.1983853333333,25.0727982222222 86.1978297777778,25.0727982222222 86.1978297777778,25.073076 86.1969964444444,25.073076 86.1969964444444,25.0733537777778 86.1964408888889,25.0733537777778 86.1964408888889,25.0736315555556 86.1956075555556,25.0736315555556 86.1956075555556,25.0739093333333 86.195052,25.0739093333333 86.195052,25.0741871111111 86.1942186666667,25.0741871111111 86.1942186666667,25.0744648888889 86.1936631111111,25.0744648888889 86.1936631111111,25.0747426666667 86.1928297777778,25.0747426666667 86.1928297777778,25.0750204444444 86.1922742222222,25.0750204444444 86.1922742222222,25.0752982222222 86.1914408888889,25.0752982222222 86.1914408888889,25.075576 86.1908853333333,25.075576 86.1908853333333,25.0758537777778 86.190052,25.0758537777778 86.190052,25.0761315555556 86.1894964444444,25.0761315555556 86.1894964444444,25.0764093333333 86.1886631111111,25.0764093333333 86.1886631111111,25.0766871111111 86.1881075555555,25.0766871111111 86.1881075555555,25.0769648888889 86.1872742222222,25.0769648888889 86.1872742222222,25.0772426666667 86.1867186666667,25.0772426666667 86.1867186666667,25.0775204444444 86.1858853333333,25.0775204444444 86.1858853333333,25.0777982222222 86.1853297777778,25.0777982222222 86.1853297777778,25.078076 86.1844964444444,25.078076 86.1844964444444,25.0783537777778 86.1839408888889,25.0783537777778 86.1839408888889,25.0786315555556 86.1831075555556,25.0786315555556 86.1831075555556,25.0789093333333 86.182552,25.0789093333333 86.182552,25.0791871111111 86.1817186666667,25.0791871111111 86.1817186666667,25.0794648888889 86.1811631111111,25.0794648888889 86.1811631111111,25.0797426666667 86.1803297777778,25.0797426666667 86.1803297777778,25.0800204444444 86.1797742222222,25.0800204444444 86.1797742222222,25.0802982222222 86.1789408888889,25.0802982222222 86.1789408888889,25.080576 86.1783853333333,25.080576 86.1783853333333,25.0808537777778 86.177552,25.0808537777778 86.177552,25.0811315555556 86.1769964444444,25.0811315555556 86.1769964444444,25.0814093333333 86.1761631111111,25.0814093333333 86.1761631111111,25.0816871111111 86.1756075555555,25.0816871111111 86.1756075555555,25.0819648888889 86.1747742222222,25.0819648888889 86.1747742222222,25.0822426666667 86.1742186666667,25.0822426666667 86.1742186666667,25.0825204444444 86.1733853333333,25.0825204444444 86.1733853333333,25.0827982222222 86.1728297777778,25.0827982222222 86.1728297777778,25.083076 86.1719964444444,25.083076 86.1719964444444,25.0833537777778 86.1714408888889,25.0833537777778 86.1714408888889,25.0836315555556 86.1706075555555,25.0836315555556 86.1706075555555,25.0839093333333 86.170052,25.0839093333333 86.170052,25.0841871111111 86.1692186666667,25.0841871111111 86.1692186666667,25.0844648888889 86.1686631111111,25.0844648888889 86.1686631111111,25.0847426666667 86.1678297777778,25.0847426666667 86.1678297777778,25.0850204444444 86.1672742222222,25.0850204444444 86.1672742222222,25.0852982222222 86.1664408888889,25.0852982222222 86.1664408888889,25.085576 86.1658853333333,25.085576 86.1658853333333,25.0858537777778 86.165052,25.0858537777778 86.165052,25.0861315555556 86.1644964444444,25.0861315555556 86.1644964444444,25.0864093333333 86.1636631111111,25.0864093333333 86.1636631111111,25.0866871111111 86.1631075555556,25.0866871111111 86.1631075555556,25.0869648888889 86.1622742222222,25.0869648888889 86.1622742222222,25.0872426666667 86.1617186666667,25.0872426666667 86.1617186666667,25.0875204444444 86.1608853333333,25.0875204444444 86.1608853333333,25.0877982222222 86.1603297777778,25.0877982222222 86.1603297777778,25.088076 86.1594964444444,25.088076 86.1594964444444,25.0883537777778 86.1589408888889,25.0883537777778 86.1589408888889,25.0886315555556 86.1581075555555,25.0886315555556 86.1581075555555,25.0889093333333 86.157552,25.0889093333333 86.157552,25.0891871111111 86.1567186666667,25.0891871111111 86.1567186666667,25.0894648888889 86.1561631111111,25.0894648888889 86.1561631111111,25.0897426666667 86.1553297777778,25.0897426666667 86.1553297777778,25.0900204444444 86.1547742222222,25.0900204444444 86.1547742222222,25.0902982222222 86.1539408888889,25.0902982222222 86.1539408888889,25.090576 86.1533853333333,25.090576 86.1533853333333,25.0908537777778 86.152552,25.0908537777778 86.152552,25.0911315555556 86.1519964444444,25.0911315555556 86.1519964444444,25.0914093333333 86.1511631111111,25.0914093333333 86.1511631111111,25.0916871111111 86.1506075555556,25.0916871111111 86.1506075555556,25.0919648888889 86.1497742222222,25.0919648888889 86.1497742222222,25.0922426666667 86.1492186666667,25.0922426666667 86.1492186666667,25.0925204444444 86.1483853333333,25.0925204444444 86.1483853333333,25.0927982222222 86.1478297777778,25.0927982222222 86.1478297777778,25.093076 86.1469964444444,25.093076 86.1469964444444,25.0933537777778 86.1464408888889,25.0933537777778 86.1464408888889,25.0936315555556 86.1456075555556,25.0936315555556 86.1456075555556,25.0939093333333 86.145052,25.0939093333333 86.145052,25.0941871111111 86.1442186666667,25.0941871111111 86.1442186666667,25.0944648888889 86.1436631111111,25.0944648888889 86.1436631111111,25.0947426666667 86.1428297777778,25.0947426666667 86.1428297777778,25.0950204444444 86.1422742222222,25.0950204444444 86.1422742222222,25.0952982222222 86.1414408888889,25.0952982222222 86.1414408888889,25.095576 86.1408853333333,25.095576 86.1408853333333,25.0958537777778 86.140052,25.0958537777778 86.140052,25.0961315555556 86.1394964444444,25.0961315555556 86.1394964444444,25.0964093333333 86.1386631111111,25.0964093333333 86.1386631111111,25.0966871111111 86.1381075555555,25.0966871111111 86.1381075555555,25.0969648888889 86.1378297777778,25.0969648888889</coordinates></LinearRing></outerBoundaryIs><innerBoundaryIs><LinearRing><coordinates>86.1303297777778,25.0475204444444 86.1331075555556,25.0475204444444 86.1331075555556,25.0472426666667 86.1339408888889,25.0472426666667 86.1339408888889,25.0475204444444 86.1347742222222,25.0475204444444 86.1347742222222,25.0472426666667 86.1358853333333,25.0472426666667 86.1358853333333,25.0469648888889 86.1364408888889,25.0469648888889 86.1364408888889,25.0466871111111 86.1369964444444,25.0466871111111 86.1369964444444,25.0464093333333 86.1372742222222,25.0464093333333 86.1372742222222,25.0461315555556 86.137552,25.0461315555556 86.137552,25.0452982222222 86.1378297777778,25.0452982222222 86.1378297777778,25.0447426666667 86.1383853333333,25.0447426666667 86.1383853333333,25.0444648888889 86.1369964444444,25.0444648888889 86.1369964444444,25.0447426666667 86.1353297777778,25.0447426666667 86.1353297777778,25.0450204444444 86.1342186666667,25.0450204444444 86.1342186666667,25.0452982222222 86.1336631111111,25.0452982222222 86.1336631111111,25.045576 86.1333853333333,25.045576 86.1333853333333,25.0452982222222 86.132552,25.0452982222222 86.132552,25.0444648888889 86.1322742222222,25.0444648888889 86.1322742222222,25.0441871111111 86.1319964444444,25.0441871111111 86.1319964444444,25.0439093333333 86.1311631111111,25.0439093333333 86.1311631111111,25.0441871111111 86.1283853333333,25.0441871111111 86.1283853333333,25.0444648888889 86.1281075555555,25.0444648888889 86.1281075555555,25.0447426666667 86.1267186666667,25.0447426666667 86.1267186666667,25.0441871111111 86.1261631111111,25.0441871111111 86.1261631111111,25.0444648888889 86.1256075555555,25.0444648888889 86.1256075555555,25.0447426666667 86.1253297777778,25.0447426666667 86.1253297777778,25.045576 86.1258853333333,25.045576 86.1258853333333,25.0464093333333 86.1261631111111,25.0464093333333 86.1261631111111,25.0466871111111 86.1264408888889,25.0466871111111 86.1264408888889,25.0469648888889 86.1267186666667,25.0469648888889 86.1267186666667,25.0472426666667 86.1303297777778,25.0472426666667 86.1303297777778,25.0475204444444</coordinates></LinearRing></innerBoundaryIs><innerBoundaryIs><LinearRing><coordinates>86.1664408888889,25.0369648888889 86.167552,25.0369648888889 86.167552,25.0364093333333 86.1678297777778,25.0364093333333 86.1678297777778,25.0352982222222 86.167552,25.0352982222222 86.167552,25.0350204444444 86.1672742222222,25.0350204444444 86.1672742222222,25.0347426666667 86.1667186666667,25.0347426666667 86.1667186666667,25.0344648888889 86.1658853333333,25.0344648888889 86.1658853333333,25.0347426666667 86.1647742222222,25.0347426666667 86.1647742222222,25.0352982222222 86.1644964444444,25.0352982222222 86.1644964444444,25.0358537777778 86.1647742222222,25.0358537777778 86.1647742222222,25.0361315555556 86.1653297777778,25.0361315555556 86.1653297777778,25.0364093333333 86.1658853333333,25.0364093333333 86.1658853333333,25.0366871111111 86.1664408888889,25.0366871111111 86.1664408888889,25.0369648888889</coordinates></LinearRing></innerBoundaryIs><innerBoundaryIs><LinearRing><coordinates>86.3094964444444,25.0225204444444 86.3097742222222,25.0225204444444 86.3097742222222,25.0222426666667 86.3094964444444,25.0222426666667 86.3094964444444,25.0225204444444</coordinates></LinearRing></innerBoundaryIs><innerBoundaryIs><LinearRing><coordinates>86.3092186666667,25.0222426666667 86.3094964444444,25.0222426666667 86.3094964444444,25.0219648888889 86.3092186666667,25.0219648888889 86.3092186666667,25.0222426666667</coordinates></LinearRing></innerBoundaryIs><innerBoundaryIs><LinearRing><coordinates>86.3086631111111,25.0219648888889 86.3089408888889,25.0219648888889 86.3089408888889,25.0216871111111 86.3086631111111,25.0216871111111 86.3086631111111,25.0219648888889</coordinates></LinearRing></innerBoundaryIs><innerBoundaryIs><LinearRing><coordinates>86.3103297777778,25.020576 86.3106075555555,25.020576 86.3106075555555,25.0202982222222 86.3103297777778,25.0202982222222 86.3103297777778,25.020576</coordinates></LinearRing></innerBoundaryIs><innerBoundaryIs><LinearRing><coordinates>86.310052,25.0183537777778 86.3103297777778,25.0183537777778 86.3103297777778,25.018076 86.310052,25.018076 86.310052,25.0183537777778</coordinates></LinearRing></innerBoundaryIs><innerBoundaryIs><LinearRing><coordinates>86.3117186666667,25.0177982222222 86.3119964444444,25.0177982222222 86.3119964444444,25.0175204444444 86.3117186666667,25.0175204444444 86.3117186666667,25.0177982222222</coordinates></LinearRing></innerBoundaryIs><innerBoundaryIs><LinearRing><coordinates>86.312552,25.0172426666667 86.3128297777778,25.0172426666667 86.3128297777778,25.0169648888889 86.312552,25.0169648888889 86.312552,25.0172426666667</coordinates></LinearRing></innerBoundaryIs><innerBoundaryIs><LinearRing><coordinates>86.3278297777778,25.015576 86.3281075555555,25.015576 86.3281075555555,25.0152982222222 86.3278297777778,25.0152982222222 86.3278297777778,25.015576</coordinates></LinearRing></innerBoundaryIs><innerBoundaryIs><LinearRing><coordinates>86.3069964444444,25.0147426666667 86.3078297777778,25.0147426666667 86.3078297777778,25.0144648888889 86.3081075555556,25.0144648888889 86.3081075555556,25.0133537777778 86.3072742222222,25.0133537777778 86.3072742222222,25.0139093333333 86.3069964444444,25.0139093333333 86.3069964444444,25.0147426666667</coordinates></LinearRing></innerBoundaryIs><innerBoundaryIs><LinearRing><coordinates>86.2628297777778,25.0133537777778 86.2636631111111,25.0133537777778 86.2636631111111,25.013076 86.2633853333333,25.013076 86.2633853333333,25.0127982222222 86.2631075555555,25.0127982222222 86.2631075555555,25.0125204444444 86.2622742222222,25.0125204444444 86.2622742222222,25.0127982222222 86.262552,25.0127982222222 86.262552,25.013076 86.2628297777778,25.013076 86.2628297777778,25.0133537777778</coordinates></LinearRing></innerBoundaryIs><innerBoundaryIs><LinearRing><coordinates>86.3014408888889,25.0133537777778 86.3022742222222,25.0133537777778 86.3022742222222,25.013076 86.302552,25.013076 86.302552,25.0127982222222 86.3028297777778,25.0127982222222 86.3028297777778,25.0125204444444 86.302552,25.0125204444444 86.302552,25.0119648888889 86.3022742222222,25.0119648888889 86.3022742222222,25.0116871111111 86.3014408888889,25.0116871111111 86.3014408888889,25.0114093333333 86.300052,25.0114093333333 86.300052,25.0119648888889 86.3003297777778,25.0119648888889 86.3003297777778,25.0122426666667 86.3008853333333,25.0122426666667 86.3008853333333,25.0125204444444 86.3011631111111,25.0125204444444 86.3011631111111,25.0127982222222 86.3014408888889,25.0127982222222 86.3014408888889,25.0133537777778</coordinates></LinearRing></innerBoundaryIs><innerBoundaryIs><LinearRing><coordinates>86.322552,25.0127982222222 86.3228297777778,25.0127982222222 86.3228297777778,25.0125204444444 86.322552,25.0125204444444 86.322552,25.0127982222222</coordinates></LinearRing></innerBoundaryIs><innerBoundaryIs><LinearRing><coordinates>86.330052,25.0127982222222 86.3303297777778,25.0127982222222 86.3303297777778,25.0125204444444 86.330052,25.0125204444444 86.330052,25.0127982222222</coordinates></LinearRing></innerBoundaryIs><innerBoundaryIs><LinearRing><coordinates>86.2569964444444,25.0125204444444 86.2572742222222,25.0125204444444 86.2572742222222,25.0122426666667 86.2578297777778,25.0122426666667 86.2578297777778,25.0116871111111 86.257552,25.0116871111111 86.257552,25.0114093333333 86.2564408888889,25.0114093333333 86.2564408888889,25.0119648888889 86.2567186666667,25.0119648888889 86.2567186666667,25.0122426666667 86.2569964444444,25.0122426666667 86.2569964444444,25.0125204444444</coordinates></LinearRing></innerBoundaryIs><innerBoundaryIs><LinearRing><coordinates>86.3231075555556,25.0119648888889 86.3233853333333,25.0119648888889 86.3233853333333,25.0116871111111 86.3231075555556,25.0116871111111 86.3231075555556,25.0119648888889</coordinates></LinearRing></innerBoundaryIs><innerBoundaryIs><LinearRing><coordinates>86.2561631111111,25.0114093333333 86.2564408888889,25.0114093333333 86.2564408888889,25.010576 86.2561631111111,25.010576 86.2561631111111,25.0102982222222 86.2553297777778,25.0102982222222 86.2553297777778,25.010576 86.255052,25.010576 86.255052,25.0108537777778 86.2553297777778,25.0108537777778 86.2553297777778,25.0111315555556 86.2561631111111,25.0111315555556 86.2561631111111,25.0114093333333</coordinates></LinearRing></innerBoundaryIs><innerBoundaryIs><LinearRing><coordinates>86.3244964444444,25.0114093333333 86.3247742222222,25.0114093333333 86.3247742222222,25.0111315555556 86.3244964444444,25.0111315555556 86.3244964444444,25.0114093333333</coordinates></LinearRing></innerBoundaryIs><innerBoundaryIs><LinearRing><coordinates>86.3506075555556,25.0111315555556 86.3511631111111,25.0111315555556 86.3511631111111,25.0108537777778 86.3506075555556,25.0108537777778 86.3506075555556,25.0111315555556</coordinates></LinearRing></innerBoundaryIs><innerBoundaryIs><LinearRing><coordinates>86.3478297777778,25.0108537777778 86.3481075555556,25.0108537777778 86.3481075555556,25.010576 86.3478297777778,25.010576 86.3478297777778,25.0108537777778</coordinates></LinearRing></innerBoundaryIs><innerBoundaryIs><LinearRing><coordinates>86.2981075555555,25.0102982222222 86.2989408888889,25.0102982222222 86.2989408888889,25.0100204444444 86.2981075555555,25.0100204444444 86.2981075555555,25.0102982222222</coordinates></LinearRing></innerBoundaryIs><innerBoundaryIs><LinearRing><coordinates>86.2978297777778,25.0100204444444 86.2981075555555,25.0100204444444 86.2981075555555,25.0097426666667 86.2978297777778,25.0097426666667 86.2978297777778,25.0100204444444</coordinates></LinearRing></innerBoundaryIs><innerBoundaryIs><LinearRing><coordinates>86.1389408888889,25.0097426666667 86.1397742222222,25.0097426666667 86.1397742222222,25.0094648888889 86.1406075555555,25.0094648888889 86.1406075555555,25.0091871111111 86.1408853333333,25.0091871111111 86.1408853333333,25.0089093333333 86.1403297777778,25.0089093333333 86.1403297777778,25.0091871111111 86.1392186666667,25.0091871111111 86.1392186666667,25.0094648888889 86.1389408888889,25.0094648888889 86.1389408888889,25.0097426666667</coordinates></LinearRing></innerBoundaryIs><innerBoundaryIs><LinearRing><coordinates>86.2961631111111,25.0091871111111 86.2964408888889,25.0091871111111 86.2964408888889,25.0089093333333 86.2961631111111,25.0089093333333 86.2961631111111,25.0091871111111</coordinates></LinearRing></innerBoundaryIs><innerBoundaryIs><LinearRing><coordinates>86.3572742222222,25.0066871111111 86.3578297777778,25.0066871111111 86.3578297777778,25.0064093333333 86.3572742222222,25.0064093333333 86.3572742222222,25.0066871111111</coordinates></LinearRing></innerBoundaryIs><innerBoundaryIs><LinearRing><coordinates>86.3603297777778,25.0052982222222 86.3606075555555,25.0052982222222 86.3606075555555,25.0050204444444 86.3603297777778,25.0050204444444 86.3603297777778,25.0052982222222</coordinates></LinearRing></innerBoundaryIs><innerBoundaryIs><LinearRing><coordinates>86.3636631111111,25.0050204444444 86.3639408888889,25.0050204444444 86.3639408888889,25.0047426666667 86.3636631111111,25.0047426666667 86.3636631111111,25.0050204444444</coordinates></LinearRing></innerBoundaryIs><innerBoundaryIs><LinearRing><coordinates>86.3419964444444,25.0039093333333 86.3422742222222,25.0039093333333 86.3422742222222,25.0033537777778 86.3419964444444,25.0033537777778 86.3419964444444,25.0039093333333</coordinates></LinearRing></innerBoundaryIs><innerBoundaryIs><LinearRing><coordinates>86.3511631111111,25.0039093333333 86.3514408888889,25.0039093333333 86.3514408888889,25.0036315555556 86.3511631111111,25.0036315555556 86.3511631111111,25.0039093333333</coordinates></LinearRing></innerBoundaryIs><innerBoundaryIs><LinearRing><coordinates>86.3514408888889,25.0036315555556 86.3517186666667,25.0036315555556 86.3517186666667,25.0033537777778 86.3514408888889,25.0033537777778 86.3514408888889,25.0036315555556</coordinates></LinearRing></innerBoundaryIs><innerBoundaryIs><LinearRing><coordinates>86.2567186666667,25.0033537777778 86.2572742222222,25.0033537777778 86.2572742222222,25.003076 86.2569964444444,25.003076 86.2569964444444,25.0027982222222 86.2564408888889,25.0027982222222 86.2564408888889,25.003076 86.2567186666667,25.003076 86.2567186666667,25.0033537777778</coordinates></LinearRing></innerBoundaryIs><innerBoundaryIs><LinearRing><coordinates>86.2561631111111,25.0027982222222 86.2564408888889,25.0027982222222 86.2564408888889,25.0025204444444 86.2561631111111,25.0025204444444 86.2561631111111,25.0027982222222</coordinates></LinearRing></innerBoundaryIs><innerBoundaryIs><LinearRing><coordinates>86.2553297777778,25.0022426666667 86.2556075555556,25.0022426666667 86.2556075555556,25.0019648888889 86.2553297777778,25.0019648888889 86.2553297777778,25.0022426666667</coordinates></LinearRing></innerBoundaryIs><innerBoundaryIs><LinearRing><coordinates>86.3492186666667,25.0019648888889 86.3494964444444,25.0019648888889 86.3494964444444,25.0016871111111 86.3492186666667,25.0016871111111 86.3492186666667,25.0019648888889</coordinates></LinearRing></innerBoundaryIs><innerBoundaryIs><LinearRing><coordinates>86.3417186666667,25.0014093333333 86.3419964444444,25.0014093333333 86.3419964444444,25.0011315555556 86.3417186666667,25.0011315555556 86.3417186666667,25.0014093333333</coordinates></LinearRing></innerBoundaryIs><innerBoundaryIs><LinearRing><coordinates>86.3678297777778,25.0014093333333 86.3681075555556,25.0014093333333 86.3681075555556,25.0011315555556 86.3678297777778,25.0011315555556 86.3678297777778,25.0014093333333</coordinates></LinearRing></innerBoundaryIs><innerBoundaryIs><LinearRing><coordinates>86.3528297777778,25.0008537777778 86.3531075555556,25.0008537777778 86.3531075555556,25.000576 86.3528297777778,25.000576 86.3528297777778,25.0008537777778</coordinates></LinearRing></innerBoundaryIs><innerBoundaryIs><LinearRing><coordinates>86.352552,25.000576 86.3528297777778,25.000576 86.3528297777778,25.0002982222222 86.352552,25.0002982222222 86.352552,25.000576</coordinates></LinearRing></innerBoundaryIs></Polygon>
  </Placemark>
</Folder>
</Document></kml>
