{"type": "FeatureCollection", "features": [{"id": "0", "type": "Feature", "properties": {"zone_id": 1, "lead_time": "< 30 mins (Flash Critical)", "color": "#ef4444"}, "geometry": {"type": "Polygon", "coordinates": [[[86.14838533333332, 25.107520444444447], [86.14838533333332, 25.107242666666668], [86.14810755555555, 25.107242666666668], [86.14810755555555, 25.10696488888889], [86.14782977777777, 25.10696488888889], [86.14782977777777, 25.10668711111111], [86.14755199999999, 25.10668711111111], [86.14755199999999, 25.106409333333335], [86.14727422222222, 25.106409333333335], [86.14727422222222, 25.106131555555557], [86.14699644444444, 25.106131555555557], [86.14699644444444, 25.105853777777778], [86.14671866666666, 25.105853777777778], [86.14671866666666, 25.105576], [86.14644088888889, 25.105576], [86.14644088888889, 25.105298222222224], [86.14616311111111, 25.105298222222224], [86.14616311111111, 25.105020444444445], [86.14588533333333, 25.105020444444445], [86.14588533333333, 25.104742666666667], [86.14560755555556, 25.104742666666667], [86.14560755555556, 25.104464888888888], [86.14532977777777, 25.104464888888888], [86.14532977777777, 25.104187111111113], [86.14505199999999, 25.104187111111113], [86.14505199999999, 25.103909333333334], [86.14477422222222, 25.103909333333334], [86.14477422222222, 25.103631555555555], [86.14449644444444, 25.103631555555555], [86.14449644444444, 25.103353777777777], [86.14421866666666, 25.103353777777777], [86.14421866666666, 25.103076], [86.14394088888888, 25.103076], [86.14394088888888, 25.102798222222223], [86.14366311111111, 25.102798222222223], [86.14366311111111, 25.102520444444444], [86.14338533333333, 25.102520444444444], [86.14338533333333, 25.10224266666667], [86.14310755555555, 25.10224266666667], [86.14310755555555, 25.10196488888889], [86.14282977777778, 25.10196488888889], [86.14282977777778, 25.10168711111111], [86.142552, 25.10168711111111], [86.142552, 25.101409333333333], [86.14227422222221, 25.101409333333333], [86.14227422222221, 25.101131555555558], [86.14199644444444, 25.101131555555558], [86.14199644444444, 25.10085377777778], [86.14171866666666, 25.10085377777778], [86.14171866666666, 25.100576], [86.14144088888888, 25.100576], [86.14144088888888, 25.10029822222222], [86.14116311111111, 25.10029822222222], [86.14116311111111, 25.100020444444446], [86.14088533333333, 25.100020444444446], [86.14088533333333, 25.099742666666668], [86.14060755555555, 25.099742666666668], [86.14060755555555, 25.09946488888889], [86.14032977777778, 25.09946488888889], [86.14032977777778, 25.09918711111111], [86.140052, 25.09918711111111], [86.140052, 25.098909333333335], [86.13977422222221, 25.098909333333335], [86.13977422222221, 25.098631555555556], [86.13949644444445, 25.098631555555556], [86.13949644444445, 25.098353777777778], [86.13921866666666, 25.098353777777778], [86.13921866666666, 25.098076], [86.13894088888888, 25.098076], [86.13894088888888, 25.097798222222224], [86.1386631111111, 25.097798222222224], [86.1386631111111, 25.097520444444445], [86.13838533333333, 25.097520444444445], [86.13838533333333, 25.097242666666666], [86.13810755555555, 25.097242666666666], [86.13810755555555, 25.096964888888888], [86.13782977777777, 25.096964888888888], [86.13782977777777, 25.096687111111113], [86.137552, 25.096687111111113], [86.137552, 25.096409333333334], [86.13727422222222, 25.096409333333334], [86.13727422222222, 25.096131555555555], [86.13699644444443, 25.096131555555555], [86.13699644444443, 25.09585377777778], [86.13671866666667, 25.09585377777778], [86.13671866666667, 25.095576], [86.13644088888888, 25.095576], [86.13644088888888, 25.095298222222223], [86.1361631111111, 25.095298222222223], [86.1361631111111, 25.095020444444444], [86.13588533333333, 25.095020444444444], [86.13588533333333, 25.09474266666667], [86.13560755555555, 25.09474266666667], [86.13560755555555, 25.09446488888889], [86.13532977777777, 25.09446488888889], [86.13532977777777, 25.09418711111111], [86.135052, 25.09418711111111], [86.135052, 25.093909333333333], [86.13477422222222, 25.093909333333333], [86.13477422222222, 25.093631555555557], [86.13449644444444, 25.093631555555557], [86.13449644444444, 25.09335377777778], [86.13421866666667, 25.09335377777778], [86.13421866666667, 25.093076], [86.13394088888889, 25.093076], [86.13394088888889, 25.09279822222222], [86.1336631111111, 25.09279822222222], [86.1336631111111, 25.092520444444446], [86.13338533333332, 25.092520444444446], [86.13338533333332, 25.092242666666667], [86.13310755555555, 25.092242666666667], [86.13310755555555, 25.09196488888889], [86.13282977777777, 25.09196488888889], [86.13282977777777, 25.09168711111111], [86.13255199999999, 25.09168711111111], [86.13255199999999, 25.091409333333335], [86.13227422222222, 25.091409333333335], [86.13227422222222, 25.091131555555556], [86.13199644444444, 25.091131555555556], [86.13199644444444, 25.090853777777777], [86.13171866666666, 25.090853777777777], [86.13171866666666, 25.090576000000002], [86.13144088888889, 25.090576000000002], [86.13144088888889, 25.090298222222224], [86.1311631111111, 25.090298222222224], [86.1311631111111, 25.090020444444445], [86.13088533333332, 25.090020444444445], [86.13088533333332, 25.089742666666666], [86.13060755555556, 25.089742666666666], [86.13060755555556, 25.08946488888889], [86.13032977777777, 25.08946488888889], [86.13032977777777, 25.089187111111112], [86.13005199999999, 25.089187111111112], [86.13005199999999, 25.088909333333334], [86.12977422222222, 25.088909333333334], [86.12977422222222, 25.088631555555555], [86.12949644444444, 25.088631555555555], [86.12949644444444, 25.08835377777778], [86.12921866666666, 25.08835377777778], [86.12921866666666, 25.088076], [86.12894088888889, 25.088076], [86.12894088888889, 25.087798222222222], [86.12866311111111, 25.087798222222222], [86.12866311111111, 25.087520444444444], [86.12838533333333, 25.087520444444444], [86.12838533333333, 25.08724266666667], [86.12810755555554, 25.08724266666667], [86.12810755555554, 25.08696488888889], [86.12782977777778, 25.08696488888889], [86.12782977777778, 25.08668711111111], [86.127552, 25.08668711111111], [86.127552, 25.086409333333332], [86.12727422222221, 25.086409333333332], [86.12727422222221, 25.086131555555557], [86.12699644444444, 25.086131555555557], [86.12699644444444, 25.08585377777778], [86.12671866666666, 25.08585377777778], [86.12671866666666, 25.085576], [86.12644088888888, 25.085576], [86.12644088888888, 25.08529822222222], [86.12616311111111, 25.08529822222222], [86.12616311111111, 25.085020444444446], [86.12588533333333, 25.085020444444446], [86.12588533333333, 25.084742666666667], [86.12560755555555, 25.084742666666667], [86.12560755555555, 25.08446488888889], [86.12532977777778, 25.08446488888889], [86.12532977777778, 25.084187111111113], [86.125052, 25.084187111111113], [86.125052, 25.083909333333335], [86.12477422222221, 25.083909333333335], [86.12477422222221, 25.083631555555556], [86.12449644444445, 25.083631555555556], [86.12449644444445, 25.083353777777777], [86.12421866666666, 25.083353777777777], [86.12421866666666, 25.083076000000002], [86.12394088888888, 25.083076000000002], [86.12394088888888, 25.082798222222223], [86.1236631111111, 25.082798222222223], [86.1236631111111, 25.082520444444445], [86.12338533333333, 25.082520444444445], [86.12338533333333, 25.082242666666666], [86.12310755555555, 25.082242666666666], [86.12310755555555, 25.08196488888889], [86.12282977777777, 25.08196488888889], [86.12282977777777, 25.081687111111112], [86.122552, 25.081687111111112], [86.122552, 25.081409333333333], [86.12227422222222, 25.081409333333333], [86.12227422222222, 25.081131555555555], [86.12199644444443, 25.081131555555555], [86.12199644444443, 25.08085377777778], [86.12171866666667, 25.08085377777778], [86.12171866666667, 25.080576], [86.12144088888888, 25.080576], [86.12144088888888, 25.080298222222222], [86.1211631111111, 25.080298222222222], [86.1211631111111, 25.080020444444443], [86.12088533333333, 25.080020444444443], [86.12088533333333, 25.079742666666668], [86.12060755555555, 25.079742666666668], [86.12060755555555, 25.07946488888889], [86.12032977777777, 25.07946488888889], [86.12032977777777, 25.07918711111111], [86.120052, 25.07918711111111], [86.120052, 25.078909333333335], [86.11977422222222, 25.078909333333335], [86.11977422222222, 25.078631555555557], [86.11949644444444, 25.078631555555557], [86.11949644444444, 25.078353777777778], [86.11921866666667, 25.078353777777778], [86.11921866666667, 25.078076], [86.11894088888889, 25.078076], [86.11894088888889, 25.077798222222224], [86.1186631111111, 25.077798222222224], [86.1186631111111, 25.077520444444446], [86.11838533333332, 25.077520444444446], [86.11838533333332, 25.077242666666667], [86.11810755555555, 25.077242666666667], [86.11810755555555, 25.076964888888888], [86.11782977777777, 25.076964888888888], [86.11782977777777, 25.076687111111113], [86.11755199999999, 25.076687111111113], [86.11755199999999, 25.076409333333334], [86.11727422222222, 25.076409333333334], [86.11727422222222, 25.076131555555556], [86.11699644444444, 25.076131555555556], [86.11699644444444, 25.075853777777777], [86.11671866666666, 25.075853777777777], [86.11671866666666, 25.075576], [86.11644088888889, 25.075576], [86.11644088888889, 25.075298222222223], [86.1161631111111, 25.075298222222223], [86.1161631111111, 25.075020444444444], [86.11588533333332, 25.075020444444444], [86.11588533333332, 25.074742666666666], [86.11560755555556, 25.074742666666666], [86.11560755555556, 25.07446488888889], [86.11532977777777, 25.07446488888889], [86.11532977777777, 25.07418711111111], [86.11505199999999, 25.07418711111111], [86.11505199999999, 25.073909333333333], [86.11477422222222, 25.073909333333333], [86.11477422222222, 25.073631555555558], [86.11449644444444, 25.073631555555558], [86.11449644444444, 25.07335377777778], [86.11421866666666, 25.07335377777778], [86.11421866666666, 25.073076], [86.11394088888889, 25.073076], [86.11394088888889, 25.07279822222222], [86.11366311111111, 25.07279822222222], [86.11366311111111, 25.072520444444446], [86.11338533333333, 25.072520444444446], [86.11338533333333, 25.072242666666668], [86.11310755555554, 25.072242666666668], [86.11310755555554, 25.07196488888889], [86.11282977777778, 25.07196488888889], [86.11282977777778, 25.07168711111111], [86.112552, 25.07168711111111], [86.112552, 25.071409333333335], [86.11227422222221, 25.071409333333335], [86.11227422222221, 25.071131555555557], [86.11199644444444, 25.071131555555557], [86.11199644444444, 25.070853777777778], [86.11171866666666, 25.070853777777778], [86.11171866666666, 25.070576], [86.11144088888888, 25.070576], [86.11144088888888, 25.070298222222224], [86.11116311111111, 25.070298222222224], [86.11116311111111, 25.070020444444445], [86.11088533333333, 25.070020444444445], [86.11088533333333, 25.069742666666667], [86.11060755555555, 25.069742666666667], [86.11060755555555, 25.069464888888888], [86.11032977777778, 25.069464888888888], [86.11032977777778, 25.069187111111113], [86.110052, 25.069187111111113], [86.110052, 25.068909333333334], [86.10977422222221, 25.068909333333334], [86.10977422222221, 25.068631555555555], [86.10949644444445, 25.068631555555555], [86.10949644444445, 25.06835377777778], [86.10921866666666, 25.06835377777778], [86.10921866666666, 25.068076], [86.10894088888888, 25.068076], [86.10894088888888, 25.067798222222223], [86.10866311111111, 25.067798222222223], [86.10866311111111, 25.067520444444444], [86.10838533333333, 25.067520444444444], [86.10838533333333, 25.06724266666667], [86.10810755555555, 25.06724266666667], [86.10810755555555, 25.06696488888889], [86.10782977777777, 25.06696488888889], [86.10782977777777, 25.06668711111111], [86.107552, 25.06668711111111], [86.107552, 25.066409333333333], [86.10727422222222, 25.066409333333333], [86.10727422222222, 25.066131555555557], [86.10699644444443, 25.066131555555557], [86.10699644444443, 25.06585377777778], [86.10671866666667, 25.06585377777778], [86.10671866666667, 25.065576], [86.10644088888888, 25.065576], [86.10644088888888, 25.06529822222222], [86.1061631111111, 25.06529822222222], [86.1061631111111, 25.065020444444446], [86.10588533333333, 25.065020444444446], [86.10588533333333, 25.064742666666668], [86.10560755555555, 25.064742666666668], [86.10560755555555, 25.06446488888889], [86.10532977777777, 25.06446488888889], [86.10532977777777, 25.06418711111111], [86.105052, 25.06418711111111], [86.105052, 25.063909333333335], [86.10477422222222, 25.063909333333335], [86.10477422222222, 25.063631555555556], [86.10449644444444, 25.063631555555556], [86.10449644444444, 25.063353777777778], [86.10421866666667, 25.063353777777778], [86.10421866666667, 25.063076], [86.10394088888889, 25.063076], [86.10394088888889, 25.062798222222224], [86.1036631111111, 25.062798222222224], [86.1036631111111, 25.062520444444445], [86.10338533333334, 25.062520444444445], [86.10338533333334, 25.062242666666666], [86.10310755555555, 25.062242666666666], [86.10310755555555, 25.06196488888889], [86.10282977777777, 25.06196488888889], [86.10282977777777, 25.061687111111112], [86.10255199999999, 25.061687111111112], [86.10255199999999, 25.061409333333334], [86.10227422222222, 25.061409333333334], [86.10227422222222, 25.061131555555555], [86.10199644444444, 25.061131555555555], [86.10199644444444, 25.06085377777778], [86.10171866666666, 25.06085377777778], [86.10171866666666, 25.060576], [86.10144088888889, 25.060576], [86.10144088888889, 25.060298222222222], [86.1011631111111, 25.060298222222222], [86.1011631111111, 25.060020444444444], [86.10088533333332, 25.060020444444444], [86.10088533333332, 25.05974266666667], [86.10060755555556, 25.05974266666667], [86.10060755555556, 25.05946488888889], [86.10032977777777, 25.05946488888889], [86.10032977777777, 25.05918711111111], [86.10005199999999, 25.05918711111111], [86.10005199999999, 25.058909333333332], [86.09977422222222, 25.058909333333332], [86.09977422222222, 25.058631555555557], [86.09949644444444, 25.058631555555557], [86.09949644444444, 25.05835377777778], [86.09921866666666, 25.05835377777778], [86.09921866666666, 25.058076], [86.09894088888889, 25.058076], [86.09894088888889, 25.05779822222222], [86.09866311111111, 25.05779822222222], [86.09866311111111, 25.057520444444446], [86.09838533333333, 25.057520444444446], [86.09838533333333, 25.057242666666667], [86.09810755555556, 25.057242666666667], [86.09810755555556, 25.05696488888889], [86.09782977777778, 25.05696488888889], [86.09782977777778, 25.056687111111113], [86.097552, 25.056687111111113], [86.097552, 25.056409333333335], [86.09727422222221, 25.056409333333335], [86.09727422222221, 25.056131555555556], [86.09699644444444, 25.056131555555556], [86.09699644444444, 25.055853777777777], [86.09671866666666, 25.055853777777777], [86.09671866666666, 25.055576000000002], [86.09644088888888, 25.055576000000002], [86.09644088888888, 25.055298222222223], [86.09616311111111, 25.055298222222223], [86.09616311111111, 25.055020444444445], [86.09588533333333, 25.055020444444445], [86.09588533333333, 25.054742666666666], [86.09560755555555, 25.054742666666666], [86.09560755555555, 25.05446488888889], [86.09532977777778, 25.05446488888889], [86.09532977777778, 25.054187111111112], [86.095052, 25.054187111111112], [86.095052, 25.000020444444445], [86.25199644444444, 25.000020444444445], [86.25199644444444, 25.000298222222224], [86.252552, 25.000298222222224], [86.252552, 25.000576], [86.25310755555554, 25.000576], [86.25310755555554, 25.000853777777778], [86.25366311111111, 25.000853777777778], [86.25366311111111, 25.000576], [86.25338533333333, 25.000576], [86.25338533333333, 25.000298222222224], [86.25310755555554, 25.000298222222224], [86.25310755555554, 25.000020444444445], [86.35421866666667, 25.000020444444445], [86.35421866666667, 25.000298222222224], [86.35449644444444, 25.000298222222224], [86.35449644444444, 25.000020444444445], [86.35782977777777, 25.000020444444445], [86.35782977777777, 25.000298222222224], [86.35810755555555, 25.000298222222224], [86.35810755555555, 25.00168711111111], [86.35838533333333, 25.00168711111111], [86.35838533333333, 25.00196488888889], [86.35810755555555, 25.00196488888889], [86.35810755555555, 25.002242666666668], [86.35838533333333, 25.002242666666668], [86.35838533333333, 25.002520444444446], [86.35782977777777, 25.002520444444446], [86.35782977777777, 25.00279822222222], [86.357552, 25.00279822222222], [86.357552, 25.002520444444446], [86.35671866666667, 25.002520444444446], [86.35671866666667, 25.00279822222222], [86.3561631111111, 25.00279822222222], [86.3561631111111, 25.002520444444446], [86.35588533333333, 25.002520444444446], [86.35588533333333, 25.002242666666668], [86.35560755555555, 25.002242666666668], [86.35560755555555, 25.00196488888889], [86.35588533333333, 25.00196488888889], [86.35588533333333, 25.00168711111111], [86.35560755555555, 25.00168711111111], [86.35560755555555, 25.001131555555556], [86.355052, 25.001131555555556], [86.355052, 25.000853777777778], [86.35477422222222, 25.000853777777778], [86.35477422222222, 25.001131555555556], [86.35449644444444, 25.001131555555556], [86.35449644444444, 25.002520444444446], [86.35421866666667, 25.002520444444446], [86.35421866666667, 25.002242666666668], [86.35394088888889, 25.002242666666668], [86.35394088888889, 25.00196488888889], [86.3536631111111, 25.00196488888889], [86.3536631111111, 25.003076], [86.35394088888889, 25.003076], [86.35394088888889, 25.00335377777778], [86.35421866666667, 25.00335377777778], [86.35421866666667, 25.003909333333333], [86.355052, 25.003909333333333], [86.355052, 25.00418711111111], [86.35477422222222, 25.00418711111111], [86.35477422222222, 25.00446488888889], [86.35421866666667, 25.00446488888889], [86.35421866666667, 25.00474266666667], [86.3536631111111, 25.00474266666667], [86.3536631111111, 25.005020444444444], [86.35338533333334, 25.005020444444444], [86.35338533333334, 25.00418711111111], [86.35227422222222, 25.00418711111111], [86.35227422222222, 25.003909333333333], [86.35199644444444, 25.003909333333333], [86.35199644444444, 25.00418711111111], [86.35060755555556, 25.00418711111111], [86.35060755555556, 25.00474266666667], [86.35088533333332, 25.00474266666667], [86.35088533333332, 25.005020444444444], [86.3511631111111, 25.005020444444444], [86.3511631111111, 25.005298222222223], [86.35171866666666, 25.005298222222223], [86.35171866666666, 25.00585377777778], [86.35144088888889, 25.00585377777778], [86.35144088888889, 25.006131555555555], [86.35088533333332, 25.006131555555555], [86.35088533333332, 25.006409333333334], [86.35032977777777, 25.006409333333334], [86.35032977777777, 25.006687111111113], [86.34977422222222, 25.006687111111113], [86.34977422222222, 25.006964888888888], [86.34921866666666, 25.006964888888888], [86.34921866666666, 25.006409333333334], [86.34810755555556, 25.006409333333334], [86.34810755555556, 25.006687111111113], [86.34782977777778, 25.006687111111113], [86.34782977777778, 25.006409333333334], [86.347552, 25.006409333333334], [86.347552, 25.006687111111113], [86.34699644444444, 25.006687111111113], [86.34699644444444, 25.006131555555555], [86.34644088888888, 25.006131555555555], [86.34644088888888, 25.00585377777778], [86.34588533333333, 25.00585377777778], [86.34588533333333, 25.005576], [86.345052, 25.005576], [86.345052, 25.00585377777778], [86.34477422222221, 25.00585377777778], [86.34477422222221, 25.006409333333334], [86.34394088888888, 25.006409333333334], [86.34394088888888, 25.006131555555555], [86.34338533333333, 25.006131555555555], [86.34338533333333, 25.00585377777778], [86.34310755555555, 25.00585377777778], [86.34310755555555, 25.006131555555555], [86.34282977777778, 25.006131555555555], [86.34282977777778, 25.00585377777778], [86.34032977777777, 25.00585377777778], [86.34032977777777, 25.005576], [86.340052, 25.005576], [86.340052, 25.00585377777778], [86.33977422222222, 25.00585377777778], [86.33977422222222, 25.005576], [86.33949644444444, 25.005576], [86.33949644444444, 25.007798222222224], [86.33921866666667, 25.007798222222224], [86.33921866666667, 25.008076], [86.33894088888889, 25.008076], [86.33894088888889, 25.008631555555557], [86.33810755555555, 25.008631555555557], [86.33810755555555, 25.008909333333335], [86.33782977777777, 25.008909333333335], [86.33782977777777, 25.008631555555557], [86.337552, 25.008631555555557], [86.337552, 25.008909333333335], [86.33727422222222, 25.008909333333335], [86.33727422222222, 25.00946488888889], [86.33699644444444, 25.00946488888889], [86.33699644444444, 25.010020444444446], [86.3386631111111, 25.010020444444446], [86.3386631111111, 25.01029822222222], [86.33921866666667, 25.01029822222222], [86.33921866666667, 25.010576], [86.33977422222222, 25.010576], [86.33977422222222, 25.01029822222222], [86.340052, 25.01029822222222], [86.340052, 25.010020444444446], [86.34032977777777, 25.010020444444446], [86.34032977777777, 25.01029822222222], [86.3411631111111, 25.01029822222222], [86.3411631111111, 25.010576], [86.34171866666667, 25.010576], [86.34171866666667, 25.01085377777778], [86.34144088888888, 25.01085377777778], [86.34144088888888, 25.011131555555558], [86.34088533333333, 25.011131555555558], [86.34088533333333, 25.011409333333333], [86.340052, 25.011409333333333], [86.340052, 25.01168711111111], [86.33977422222222, 25.01168711111111], [86.33977422222222, 25.011409333333333], [86.33949644444444, 25.011409333333333], [86.33949644444444, 25.01168711111111], [86.33894088888889, 25.01168711111111], [86.33894088888889, 25.01196488888889], [86.3386631111111, 25.01196488888889], [86.3386631111111, 25.012520444444444], [86.33782977777777, 25.012520444444444], [86.33782977777777, 25.012798222222223], [86.337552, 25.012798222222223], [86.337552, 25.013076], [86.33699644444444, 25.013076], [86.33699644444444, 25.013353777777777], [86.33671866666666, 25.013353777777777], [86.33671866666666, 25.013076], [86.3361631111111, 25.013076], [86.3361631111111, 25.013353777777777], [86.33588533333332, 25.013353777777777], [86.33588533333332, 25.013076], [86.33532977777777, 25.013076], [86.33532977777777, 25.012798222222223], [86.33560755555555, 25.012798222222223], [86.33560755555555, 25.012520444444444], [86.33477422222222, 25.012520444444444], [86.33477422222222, 25.012242666666666], [86.33449644444444, 25.012242666666666], [86.33449644444444, 25.012520444444444], [86.33394088888889, 25.012520444444444], [86.33394088888889, 25.012798222222223], [86.33282977777777, 25.012798222222223], [86.33282977777777, 25.012520444444444], [86.33227422222222, 25.012520444444444], [86.33227422222222, 25.013076], [86.33199644444444, 25.013076], [86.33199644444444, 25.013353777777777], [86.33088533333333, 25.013353777777777], [86.33088533333333, 25.013076], [86.33032977777778, 25.013076], [86.33032977777778, 25.013631555555556], [86.330052, 25.013631555555556], [86.330052, 25.013909333333334], [86.32977422222221, 25.013909333333334], [86.32977422222221, 25.014187111111113], [86.32921866666666, 25.014187111111113], [86.32921866666666, 25.014464888888888], [86.32866311111111, 25.014464888888888], [86.32866311111111, 25.015020444444446], [86.32838533333333, 25.015020444444446], [86.32838533333333, 25.015853777777778], [86.32782977777778, 25.015853777777778], [86.32782977777778, 25.015576], [86.32727422222221, 25.015576], [86.32727422222221, 25.015020444444446], [86.32699644444445, 25.015020444444446], [86.32699644444445, 25.016131555555557], [86.32644088888888, 25.016131555555557], [86.32644088888888, 25.016409333333335], [86.3261631111111, 25.016409333333335], [86.3261631111111, 25.015853777777778], [86.32644088888888, 25.015853777777778], [86.32644088888888, 25.015576], [86.32588533333333, 25.015576], [86.32588533333333, 25.015298222222224], [86.3261631111111, 25.015298222222224], [86.3261631111111, 25.014742666666667], [86.32588533333333, 25.014742666666667], [86.32588533333333, 25.014464888888888], [86.32532977777777, 25.014464888888888], [86.32532977777777, 25.013909333333334], [86.32560755555555, 25.013909333333334], [86.32560755555555, 25.013631555555556], [86.32532977777777, 25.013631555555556], [86.32532977777777, 25.012520444444444], [86.325052, 25.012520444444444], [86.325052, 25.012242666666666], [86.3236631111111, 25.012242666666666], [86.3236631111111, 25.012520444444444], [86.32310755555555, 25.012520444444444], [86.32310755555555, 25.013076], [86.322552, 25.013076], [86.322552, 25.013353777777777], [86.32199644444444, 25.013353777777777], [86.32199644444444, 25.014187111111113], [86.32227422222222, 25.014187111111113], [86.32227422222222, 25.014742666666667], [86.32199644444444, 25.014742666666667], [86.32199644444444, 25.015298222222224], [86.32171866666667, 25.015298222222224], [86.32171866666667, 25.016131555555557], [86.3211631111111, 25.016131555555557], [86.3211631111111, 25.015853777777778], [86.32088533333332, 25.015853777777778], [86.32088533333332, 25.015576], [86.32060755555555, 25.015576], [86.32060755555555, 25.015298222222224], [86.32005199999999, 25.015298222222224], [86.32005199999999, 25.015576], [86.31977422222222, 25.015576], [86.31977422222222, 25.015020444444446], [86.31949644444444, 25.015020444444446], [86.31949644444444, 25.014187111111113], [86.31921866666666, 25.014187111111113], [86.31921866666666, 25.014742666666667], [86.31894088888889, 25.014742666666667], [86.31894088888889, 25.014187111111113], [86.3186631111111, 25.014187111111113], [86.3186631111111, 25.013909333333334], [86.31838533333332, 25.013909333333334], [86.31838533333332, 25.013353777777777], [86.31782977777777, 25.013353777777777], [86.31782977777777, 25.013076], [86.31727422222222, 25.013076], [86.31727422222222, 25.013353777777777], [86.31755199999999, 25.013353777777777], [86.31755199999999, 25.013631555555556], [86.31699644444444, 25.013631555555556], [86.31699644444444, 25.013909333333334], [86.31644088888889, 25.013909333333334], [86.31644088888889, 25.014187111111113], [86.31616311111111, 25.014187111111113], [86.31616311111111, 25.014464888888888], [86.31588533333333, 25.014464888888888], [86.31588533333333, 25.014742666666667], [86.31671866666666, 25.014742666666667], [86.31671866666666, 25.016131555555557], [86.31588533333333, 25.016131555555557], [86.31588533333333, 25.015853777777778], [86.31560755555554, 25.015853777777778], [86.31560755555554, 25.015576], [86.31532977777778, 25.015576], [86.31532977777778, 25.015298222222224], [86.31449644444444, 25.015298222222224], [86.31449644444444, 25.015020444444446], [86.31366311111111, 25.015020444444446], [86.31366311111111, 25.015298222222224], [86.31394088888888, 25.015298222222224], [86.31394088888888, 25.015576], [86.31366311111111, 25.015576], [86.31366311111111, 25.015853777777778], [86.31310755555555, 25.015853777777778], [86.31310755555555, 25.01696488888889], [86.31338533333333, 25.01696488888889], [86.31338533333333, 25.017520444444443], [86.31366311111111, 25.017520444444443], [86.31366311111111, 25.01835377777778], [86.31394088888888, 25.01835377777778], [86.31394088888888, 25.018631555555555], [86.31310755555555, 25.018631555555555], [86.31310755555555, 25.018909333333333], [86.31338533333333, 25.018909333333333], [86.31338533333333, 25.019187111111112], [86.31310755555555, 25.019187111111112], [86.31310755555555, 25.020020444444445], [86.31199644444445, 25.020020444444445], [86.31199644444445, 25.019742666666666], [86.31171866666666, 25.019742666666666], [86.31171866666666, 25.020020444444445], [86.31144088888888, 25.020020444444445], [86.31144088888888, 25.019742666666666], [86.3111631111111, 25.019742666666666], [86.3111631111111, 25.020020444444445], [86.31088533333333, 25.020020444444445], [86.31088533333333, 25.020298222222223], [86.3111631111111, 25.020298222222223], [86.3111631111111, 25.021687111111113], [86.31144088888888, 25.021687111111113], [86.31144088888888, 25.02196488888889], [86.31171866666666, 25.02196488888889], [86.31171866666666, 25.022242666666667], [86.3111631111111, 25.022242666666667], [86.3111631111111, 25.02196488888889], [86.31060755555555, 25.02196488888889], [86.31060755555555, 25.022242666666667], [86.31088533333333, 25.022242666666667], [86.31088533333333, 25.022520444444446], [86.310052, 25.022520444444446], [86.310052, 25.023076], [86.31032977777777, 25.023076], [86.31032977777777, 25.02335377777778], [86.3111631111111, 25.02335377777778], [86.3111631111111, 25.023631555555557], [86.31088533333333, 25.023631555555557], [86.31088533333333, 25.02418711111111], [86.3111631111111, 25.02418711111111], [86.3111631111111, 25.02446488888889], [86.31032977777777, 25.02446488888889], [86.31032977777777, 25.02418711111111], [86.310052, 25.02418711111111], [86.310052, 25.023909333333332], [86.30977422222222, 25.023909333333332], [86.30977422222222, 25.023631555555557], [86.30894088888888, 25.023631555555557], [86.30894088888888, 25.02418711111111], [86.3086631111111, 25.02418711111111], [86.3086631111111, 25.023909333333332], [86.30838533333333, 25.023909333333332], [86.30838533333333, 25.023631555555557], [86.307552, 25.023631555555557], [86.307552, 25.023909333333332], [86.30727422222222, 25.023909333333332], [86.30727422222222, 25.02446488888889], [86.30699644444444, 25.02446488888889], [86.30699644444444, 25.02474266666667], [86.30671866666667, 25.02474266666667], [86.30671866666667, 25.02446488888889], [86.30644088888889, 25.02446488888889], [86.30644088888889, 25.02418711111111], [86.30588533333332, 25.02418711111111], [86.30588533333332, 25.023909333333332], [86.30532977777777, 25.023909333333332], [86.30532977777777, 25.02474266666667], [86.30560755555555, 25.02474266666667], [86.30560755555555, 25.025020444444444], [86.30588533333332, 25.025020444444444], [86.30588533333332, 25.025298222222222], [86.3061631111111, 25.025298222222222], [86.3061631111111, 25.025576], [86.30699644444444, 25.025576], [86.30699644444444, 25.02585377777778], [86.307552, 25.02585377777778], [86.307552, 25.026409333333334], [86.30699644444444, 25.026409333333334], [86.30699644444444, 25.02696488888889], [86.30671866666667, 25.02696488888889], [86.30671866666667, 25.027242666666666], [86.30699644444444, 25.027242666666666], [86.30699644444444, 25.027520444444445], [86.30727422222222, 25.027520444444445], [86.30727422222222, 25.028076000000002], [86.30699644444444, 25.028076000000002], [86.30699644444444, 25.028353777777777], [86.30644088888889, 25.028353777777777], [86.30644088888889, 25.028076000000002], [86.30588533333332, 25.028076000000002], [86.30588533333332, 25.027798222222224], [86.30560755555555, 25.027798222222224], [86.30560755555555, 25.027520444444445], [86.30532977777777, 25.027520444444445], [86.30532977777777, 25.027798222222224], [86.30505199999999, 25.027798222222224], [86.30505199999999, 25.028076000000002], [86.30421866666666, 25.028076000000002], [86.30421866666666, 25.027798222222224], [86.30255199999999, 25.027798222222224], [86.30255199999999, 25.028631555555556], [86.30282977777777, 25.028631555555556], [86.30282977777777, 25.02918711111111], [86.30338533333332, 25.02918711111111], [86.30338533333332, 25.02946488888889], [86.30394088888889, 25.02946488888889], [86.30394088888889, 25.029742666666667], [86.3036631111111, 25.029742666666667], [86.3036631111111, 25.030020444444446], [86.30310755555556, 25.030020444444446], [86.30310755555556, 25.03029822222222], [86.30282977777777, 25.03029822222222], [86.30282977777777, 25.030020444444446], [86.30227422222222, 25.030020444444446], [86.30227422222222, 25.029742666666667], [86.30060755555554, 25.029742666666667], [86.30060755555554, 25.030020444444446], [86.29977422222221, 25.030020444444446], [86.29977422222221, 25.029742666666667], [86.29949644444444, 25.029742666666667], [86.29949644444444, 25.02946488888889], [86.29894088888888, 25.02946488888889], [86.29894088888888, 25.02918711111111], [86.29838533333333, 25.02918711111111], [86.29838533333333, 25.02946488888889], [86.29782977777778, 25.02946488888889], [86.29782977777778, 25.030020444444446], [86.29810755555555, 25.030020444444446], [86.29810755555555, 25.030576], [86.29782977777778, 25.030576], [86.29782977777778, 25.03085377777778], [86.297552, 25.03085377777778], [86.297552, 25.031131555555557], [86.29671866666666, 25.031131555555557], [86.29671866666666, 25.031409333333333], [86.29616311111111, 25.031409333333333], [86.29616311111111, 25.03168711111111], [86.29588533333333, 25.03168711111111], [86.29588533333333, 25.03196488888889], [86.29532977777777, 25.03196488888889], [86.29532977777777, 25.03224266666667], [86.29421866666667, 25.03224266666667], [86.29421866666667, 25.032520444444444], [86.29310755555555, 25.032520444444444], [86.29310755555555, 25.031409333333333], [86.29282977777777, 25.031409333333333], [86.29282977777777, 25.02918711111111], [86.292552, 25.02918711111111], [86.292552, 25.028353777777777], [86.29227422222222, 25.028353777777777], [86.29227422222222, 25.028076000000002], [86.29199644444444, 25.028076000000002], [86.29199644444444, 25.027798222222224], [86.29171866666667, 25.027798222222224], [86.29171866666667, 25.027242666666666], [86.29144088888889, 25.027242666666666], [86.29144088888889, 25.02696488888889], [86.2911631111111, 25.02696488888889], [86.2911631111111, 25.026687111111112], [86.29088533333334, 25.026687111111112], [86.29088533333334, 25.026409333333334], [86.29032977777777, 25.026409333333334], [86.29032977777777, 25.026131555555555], [86.29005199999999, 25.026131555555555], [86.29005199999999, 25.02585377777778], [86.28949644444444, 25.02585377777778], [86.28949644444444, 25.025576], [86.28894088888889, 25.025576], [86.28894088888889, 25.025298222222222], [86.2886631111111, 25.025298222222222], [86.2886631111111, 25.02474266666667], [86.28838533333332, 25.02474266666667], [86.28838533333332, 25.02446488888889], [86.28810755555556, 25.02446488888889], [86.28810755555556, 25.02418711111111], [86.28782977777777, 25.02418711111111], [86.28782977777777, 25.023909333333332], [86.28699644444444, 25.023909333333332], [86.28699644444444, 25.023631555555557], [86.28644088888889, 25.023631555555557], [86.28644088888889, 25.023909333333332], [86.285052, 25.023909333333332], [86.285052, 25.02335377777778], [86.28532977777778, 25.02335377777778], [86.28532977777778, 25.023076], [86.28477422222221, 25.023076], [86.28477422222221, 25.022520444444446], [86.28449644444444, 25.022520444444446], [86.28449644444444, 25.02279822222222], [86.28366311111111, 25.02279822222222], [86.28366311111111, 25.023076], [86.28338533333333, 25.023076], [86.28338533333333, 25.02279822222222], [86.28310755555555, 25.02279822222222], [86.28310755555555, 25.022520444444446], [86.27949644444443, 25.022520444444446], [86.27949644444443, 25.022242666666667], [86.27921866666667, 25.022242666666667], [86.27921866666667, 25.021687111111113], [86.27894088888888, 25.021687111111113], [86.27894088888888, 25.021409333333335], [86.27838533333333, 25.021409333333335], [86.27838533333333, 25.021131555555556], [86.2786631111111, 25.021131555555556], [86.2786631111111, 25.020853777777777], [86.27782977777777, 25.020853777777777], [86.27782977777777, 25.020576000000002], [86.27727422222222, 25.020576000000002], [86.27727422222222, 25.020298222222223], [86.27671866666667, 25.020298222222223], [86.27671866666667, 25.020576000000002], [86.27644088888889, 25.020576000000002], [86.27644088888889, 25.020298222222223], [86.27588533333333, 25.020298222222223], [86.27588533333333, 25.020020444444445], [86.27532977777777, 25.020020444444445], [86.27532977777777, 25.019742666666666], [86.27449644444444, 25.019742666666666], [86.27449644444444, 25.01946488888889], [86.27338533333332, 25.01946488888889], [86.27338533333332, 25.019187111111112], [86.27310755555555, 25.019187111111112], [86.27310755555555, 25.018631555555555], [86.27255199999999, 25.018631555555555], [86.27255199999999, 25.01835377777778], [86.27005199999999, 25.01835377777778], [86.27005199999999, 25.018076], [86.26921866666666, 25.018076], [86.26921866666666, 25.017798222222222], [86.26866311111111, 25.017798222222222], [86.26866311111111, 25.017520444444443], [86.26727422222221, 25.017520444444443], [86.26727422222221, 25.017242666666668], [86.26699644444444, 25.017242666666668], [86.26699644444444, 25.017520444444443], [86.26644088888888, 25.017520444444443], [86.26644088888888, 25.017242666666668], [86.26532977777778, 25.017242666666668], [86.26532977777778, 25.01696488888889], [86.265052, 25.01696488888889], [86.265052, 25.01668711111111], [86.26477422222221, 25.01668711111111], [86.26477422222221, 25.016409333333335], [86.26449644444445, 25.016409333333335], [86.26449644444445, 25.016131555555557], [86.26421866666666, 25.016131555555557], [86.26421866666666, 25.015020444444446], [86.26394088888888, 25.015020444444446], [86.26394088888888, 25.014742666666667], [86.2636631111111, 25.014742666666667], [86.2636631111111, 25.014464888888888], [86.262552, 25.014464888888888], [86.262552, 25.015020444444446], [86.26227422222222, 25.015020444444446], [86.26227422222222, 25.015298222222224], [86.26199644444443, 25.015298222222224], [86.26199644444443, 25.015020444444446], [86.26144088888888, 25.015020444444446], [86.26144088888888, 25.015298222222224], [86.2611631111111, 25.015298222222224], [86.2611631111111, 25.015020444444446], [86.26060755555555, 25.015020444444446], [86.26060755555555, 25.014742666666667], [86.26032977777777, 25.014742666666667], [86.26032977777777, 25.015020444444446], [86.260052, 25.015020444444446], [86.260052, 25.014742666666667], [86.25894088888889, 25.014742666666667], [86.25894088888889, 25.014187111111113], [86.2586631111111, 25.014187111111113], [86.2586631111111, 25.013909333333334], [86.25838533333332, 25.013909333333334], [86.25838533333332, 25.013631555555556], [86.25755199999999, 25.013631555555556], [86.25755199999999, 25.013353777777777], [86.25699644444444, 25.013353777777777], [86.25699644444444, 25.013076], [86.25532977777777, 25.013076], [86.25532977777777, 25.013353777777777], [86.25505199999999, 25.013353777777777], [86.25505199999999, 25.013076], [86.25449644444444, 25.013076], [86.25449644444444, 25.013353777777777], [86.25366311111111, 25.013353777777777], [86.25366311111111, 25.013076], [86.25338533333333, 25.013076], [86.25338533333333, 25.013353777777777], [86.25171866666666, 25.013353777777777], [86.25171866666666, 25.013631555555556], [86.25116311111111, 25.013631555555556], [86.25116311111111, 25.013909333333334], [86.24838533333333, 25.013909333333334], [86.24838533333333, 25.014187111111113], [86.24782977777777, 25.014187111111113], [86.24782977777777, 25.014464888888888], [86.24671866666667, 25.014464888888888], [86.24671866666667, 25.014742666666667], [86.24560755555555, 25.014742666666667], [86.24560755555555, 25.015020444444446], [86.2436631111111, 25.015020444444446], [86.2436631111111, 25.015298222222224], [86.24199644444444, 25.015298222222224], [86.24199644444444, 25.015576], [86.2411631111111, 25.015576], [86.2411631111111, 25.015298222222224], [86.23977422222222, 25.015298222222224], [86.23977422222222, 25.015576], [86.23949644444444, 25.015576], [86.23949644444444, 25.015853777777778], [86.23921866666666, 25.015853777777778], [86.23921866666666, 25.016409333333335], [86.23894088888889, 25.016409333333335], [86.23894088888889, 25.01668711111111], [86.23782977777778, 25.01668711111111], [86.23782977777778, 25.01696488888889], [86.23727422222221, 25.01696488888889], [86.23727422222221, 25.017242666666668], [86.23699644444444, 25.017242666666668], [86.23699644444444, 25.017520444444443], [86.23644088888888, 25.017520444444443], [86.23644088888888, 25.017798222222222], [86.23616311111111, 25.017798222222222], [86.23616311111111, 25.018076], [86.23560755555555, 25.018076], [86.23560755555555, 25.01835377777778], [86.23532977777778, 25.01835377777778], [86.23532977777778, 25.018631555555555], [86.235052, 25.018631555555555], [86.235052, 25.018909333333333], [86.23449644444445, 25.018909333333333], [86.23449644444445, 25.019187111111112], [86.23421866666666, 25.019187111111112], [86.23421866666666, 25.01946488888889], [86.23394088888888, 25.01946488888889], [86.23394088888888, 25.020020444444445], [86.23366311111111, 25.020020444444445], [86.23366311111111, 25.020576000000002], [86.23394088888888, 25.020576000000002], [86.23394088888888, 25.020853777777777], [86.23421866666666, 25.020853777777777], [86.23421866666666, 25.021409333333335], [86.23394088888888, 25.021409333333335], [86.23394088888888, 25.021131555555556], [86.23310755555555, 25.021131555555556], [86.23310755555555, 25.021409333333335], [86.23282977777777, 25.021409333333335], [86.23282977777777, 25.02196488888889], [86.232552, 25.02196488888889], [86.232552, 25.022242666666667], [86.23282977777777, 25.022242666666667], [86.23282977777777, 25.023076], [86.232552, 25.023076], [86.232552, 25.023631555555557], [86.23227422222222, 25.023631555555557], [86.23227422222222, 25.02418711111111], [86.23199644444443, 25.02418711111111], [86.23199644444443, 25.025576], [86.23144088888888, 25.025576], [86.23144088888888, 25.02585377777778], [86.23088533333333, 25.02585377777778], [86.23088533333333, 25.026409333333334], [86.23060755555555, 25.026409333333334], [86.23060755555555, 25.02696488888889], [86.23032977777777, 25.02696488888889], [86.23032977777777, 25.027798222222224], [86.230052, 25.027798222222224], [86.230052, 25.028631555555556], [86.23032977777777, 25.028631555555556], [86.23032977777777, 25.02918711111111], [86.230052, 25.02918711111111], [86.230052, 25.03224266666667], [86.23032977777777, 25.03224266666667], [86.23032977777777, 25.03335377777778], [86.23060755555555, 25.03335377777778], [86.23060755555555, 25.033909333333334], [86.2311631111111, 25.033909333333334], [86.2311631111111, 25.034187111111113], [86.23171866666667, 25.034187111111113], [86.23171866666667, 25.034464888888888], [86.23199644444443, 25.034464888888888], [86.23199644444443, 25.034742666666666], [86.232552, 25.034742666666666], [86.232552, 25.035020444444445], [86.23282977777777, 25.035020444444445], [86.23282977777777, 25.035576], [86.23199644444443, 25.035576], [86.23199644444443, 25.035853777777778], [86.23171866666667, 25.035853777777778], [86.23171866666667, 25.036131555555556], [86.2311631111111, 25.036131555555556], [86.2311631111111, 25.036409333333335], [86.23088533333333, 25.036409333333335], [86.23088533333333, 25.03668711111111], [86.23060755555555, 25.03668711111111], [86.23060755555555, 25.03696488888889], [86.23032977777777, 25.03696488888889], [86.23032977777777, 25.038076], [86.23060755555555, 25.038076], [86.23060755555555, 25.038631555555558], [86.23088533333333, 25.038631555555558], [86.23088533333333, 25.038909333333333], [86.2311631111111, 25.038909333333333], [86.2311631111111, 25.03918711111111], [86.23144088888888, 25.03918711111111], [86.23144088888888, 25.03946488888889], [86.23171866666667, 25.03946488888889], [86.23171866666667, 25.03974266666667], [86.23199644444443, 25.03974266666667], [86.23199644444443, 25.040020444444444], [86.23282977777777, 25.040020444444444], [86.23282977777777, 25.040298222222223], [86.23421866666666, 25.040298222222223], [86.23421866666666, 25.040576], [86.237552, 25.040576], [86.237552, 25.040298222222223], [86.23782977777778, 25.040298222222223], [86.23782977777778, 25.040853777777777], [86.237552, 25.040853777777777], [86.237552, 25.041131555555555], [86.23727422222221, 25.041131555555555], [86.23727422222221, 25.041409333333334], [86.23699644444444, 25.041409333333334], [86.23699644444444, 25.041131555555555], [86.23644088888888, 25.041131555555555], [86.23644088888888, 25.041409333333334], [86.23616311111111, 25.041409333333334], [86.23616311111111, 25.041687111111113], [86.23588533333333, 25.041687111111113], [86.23588533333333, 25.041409333333334], [86.23449644444445, 25.041409333333334], [86.23449644444445, 25.041687111111113], [86.23366311111111, 25.041687111111113], [86.23366311111111, 25.041964888888888], [86.23338533333333, 25.041964888888888], [86.23338533333333, 25.042798222222224], [86.23366311111111, 25.042798222222224], [86.23366311111111, 25.043076], [86.23394088888888, 25.043076], [86.23394088888888, 25.043631555555557], [86.232552, 25.043631555555557], [86.232552, 25.043353777777778], [86.23199644444443, 25.043353777777778], [86.23199644444443, 25.043076], [86.23144088888888, 25.043076], [86.23144088888888, 25.042798222222224], [86.2311631111111, 25.042798222222224], [86.2311631111111, 25.043076], [86.23060755555555, 25.043076], [86.23060755555555, 25.04418711111111], [86.23032977777777, 25.04418711111111], [86.23032977777777, 25.04446488888889], [86.22977422222222, 25.04446488888889], [86.22977422222222, 25.044742666666668], [86.22949644444444, 25.044742666666668], [86.22949644444444, 25.045298222222222], [86.22921866666667, 25.045298222222222], [86.22921866666667, 25.045576], [86.2286631111111, 25.045576], [86.2286631111111, 25.045298222222222], [86.22810755555555, 25.045298222222222], [86.22810755555555, 25.045576], [86.22782977777777, 25.045576], [86.22782977777777, 25.045020444444447], [86.22755199999999, 25.045020444444447], [86.22755199999999, 25.044742666666668], [86.22727422222222, 25.044742666666668], [86.22727422222222, 25.04446488888889], [86.22699644444444, 25.04446488888889], [86.22699644444444, 25.04418711111111], [86.22560755555556, 25.04418711111111], [86.22560755555556, 25.043631555555557], [86.22505199999999, 25.043631555555557], [86.22505199999999, 25.043909333333335], [86.22449644444444, 25.043909333333335], [86.22449644444444, 25.043631555555557], [86.22421866666666, 25.043631555555557], [86.22421866666666, 25.043909333333335], [86.22394088888889, 25.043909333333335], [86.22394088888889, 25.04418711111111], [86.22366311111111, 25.04418711111111], [86.22366311111111, 25.045020444444447], [86.22310755555556, 25.045020444444447], [86.22310755555556, 25.045298222222222], [86.22282977777778, 25.045298222222222], [86.22282977777778, 25.04585377777778], [86.222552, 25.04585377777778], [86.222552, 25.046409333333333], [86.22227422222221, 25.046409333333333], [86.22227422222221, 25.04696488888889], [86.22199644444444, 25.04696488888889], [86.22199644444444, 25.048353777777777], [86.22227422222221, 25.048353777777777], [86.22227422222221, 25.048631555555556], [86.222552, 25.048631555555556], [86.222552, 25.048909333333334], [86.22227422222221, 25.048909333333334], [86.22227422222221, 25.049187111111113], [86.22171866666666, 25.049187111111113], [86.22171866666666, 25.04946488888889], [86.22144088888888, 25.04946488888889], [86.22144088888888, 25.050020444444446], [86.22116311111111, 25.050020444444446], [86.22116311111111, 25.051409333333332], [86.22144088888888, 25.051409333333332], [86.22144088888888, 25.052242666666668], [86.22171866666666, 25.052242666666668], [86.22171866666666, 25.052798222222222], [86.22199644444444, 25.052798222222222], [86.22199644444444, 25.053076], [86.22227422222221, 25.053076], [86.22227422222221, 25.05335377777778], [86.222552, 25.05335377777778], [86.222552, 25.053631555555555], [86.22338533333333, 25.053631555555555], [86.22338533333333, 25.053909333333333], [86.22421866666666, 25.053909333333333], [86.22421866666666, 25.053631555555555], [86.22449644444444, 25.053631555555555], [86.22449644444444, 25.053909333333333], [86.22477422222222, 25.053909333333333], [86.22477422222222, 25.054187111111112], [86.22532977777777, 25.054187111111112], [86.22532977777777, 25.053909333333333], [86.22671866666666, 25.053909333333333], [86.22671866666666, 25.054187111111112], [86.22838533333334, 25.054187111111112], [86.22838533333334, 25.053909333333333], [86.22977422222222, 25.053909333333333], [86.22977422222222, 25.054187111111112], [86.23032977777777, 25.054187111111112], [86.23032977777777, 25.05446488888889], [86.22949644444444, 25.05446488888889], [86.22949644444444, 25.054187111111112], [86.22894088888889, 25.054187111111112], [86.22894088888889, 25.05446488888889], [86.22838533333334, 25.05446488888889], [86.22838533333334, 25.054742666666666], [86.22782977777777, 25.054742666666666], [86.22782977777777, 25.055020444444445], [86.22755199999999, 25.055020444444445], [86.22755199999999, 25.055298222222223], [86.22588533333332, 25.055298222222223], [86.22588533333332, 25.055576000000002], [86.22560755555556, 25.055576000000002], [86.22560755555556, 25.056409333333335], [86.22449644444444, 25.056409333333335], [86.22449644444444, 25.056687111111113], [86.22421866666666, 25.056687111111113], [86.22421866666666, 25.057242666666667], [86.22394088888889, 25.057242666666667], [86.22394088888889, 25.057520444444446], [86.22449644444444, 25.057520444444446], [86.22449644444444, 25.05779822222222], [86.22532977777777, 25.05779822222222], [86.22532977777777, 25.058076], [86.22644088888889, 25.058076], [86.22644088888889, 25.05835377777778], [86.22727422222222, 25.05835377777778], [86.22727422222222, 25.058076], [86.22755199999999, 25.058076], [86.22755199999999, 25.05835377777778], [86.22838533333334, 25.05835377777778], [86.22838533333334, 25.058631555555557], [86.22755199999999, 25.058631555555557], [86.22755199999999, 25.058909333333332], [86.22727422222222, 25.058909333333332], [86.22727422222222, 25.05946488888889], [86.22755199999999, 25.05946488888889], [86.22755199999999, 25.05974266666667], [86.22699644444444, 25.05974266666667], [86.22699644444444, 25.060020444444444], [86.22644088888889, 25.060020444444444], [86.22644088888889, 25.060298222222222], [86.22671866666666, 25.060298222222222], [86.22671866666666, 25.06085377777778], [86.22505199999999, 25.06085377777778], [86.22505199999999, 25.060576], [86.22449644444444, 25.060576], [86.22449644444444, 25.06085377777778], [86.22421866666666, 25.06085377777778], [86.22421866666666, 25.061687111111112], [86.22532977777777, 25.061687111111112], [86.22532977777777, 25.06196488888889], [86.22699644444444, 25.06196488888889], [86.22699644444444, 25.062242666666666], [86.22755199999999, 25.062242666666666], [86.22755199999999, 25.062798222222224], [86.22699644444444, 25.062798222222224], [86.22699644444444, 25.063076], [86.22671866666666, 25.063076], [86.22671866666666, 25.063353777777778], [86.22588533333332, 25.063353777777778], [86.22588533333332, 25.063631555555556], [86.22560755555556, 25.063631555555556], [86.22560755555556, 25.06418711111111], [86.22532977777777, 25.06418711111111], [86.22532977777777, 25.063909333333335], [86.22477422222222, 25.063909333333335], [86.22477422222222, 25.06418711111111], [86.22394088888889, 25.06418711111111], [86.22394088888889, 25.06446488888889], [86.22366311111111, 25.06446488888889], [86.22366311111111, 25.06585377777778], [86.22394088888889, 25.06585377777778], [86.22394088888889, 25.066131555555557], [86.22421866666666, 25.066131555555557], [86.22421866666666, 25.066409333333333], [86.22449644444444, 25.066409333333333], [86.22449644444444, 25.06668711111111], [86.22477422222222, 25.06668711111111], [86.22477422222222, 25.067520444444444], [86.22505199999999, 25.067520444444444], [86.22505199999999, 25.067798222222223], [86.2261631111111, 25.067798222222223], [86.2261631111111, 25.067520444444444], [86.22644088888889, 25.067520444444444], [86.22644088888889, 25.06724266666667], [86.22671866666666, 25.06724266666667], [86.22671866666666, 25.06835377777778], [86.22644088888889, 25.06835377777778], [86.22644088888889, 25.068631555555555], [86.22588533333332, 25.068631555555555], [86.22588533333332, 25.068909333333334], [86.22532977777777, 25.068909333333334], [86.22532977777777, 25.069187111111113], [86.22477422222222, 25.069187111111113], [86.22477422222222, 25.069464888888888], [86.22421866666666, 25.069464888888888], [86.22421866666666, 25.069742666666667], [86.22366311111111, 25.069742666666667], [86.22366311111111, 25.070020444444445], [86.22310755555556, 25.070020444444445], [86.22310755555556, 25.070298222222224], [86.222552, 25.070298222222224], [86.222552, 25.070576], [86.22199644444444, 25.070576], [86.22199644444444, 25.070853777777778], [86.22144088888888, 25.070853777777778], [86.22144088888888, 25.071131555555557], [86.22088533333333, 25.071131555555557], [86.22088533333333, 25.071409333333335], [86.22032977777778, 25.071409333333335], [86.22032977777778, 25.07168711111111], [86.21977422222221, 25.07168711111111], [86.21977422222221, 25.07196488888889], [86.21921866666666, 25.07196488888889], [86.21921866666666, 25.072242666666668], [86.21866311111111, 25.072242666666668], [86.21866311111111, 25.072520444444446], [86.21810755555555, 25.072520444444446], [86.21810755555555, 25.07279822222222], [86.217552, 25.07279822222222], [86.217552, 25.073076], [86.21699644444443, 25.073076], [86.21699644444443, 25.07335377777778], [86.21644088888888, 25.07335377777778], [86.21644088888888, 25.073631555555558], [86.21588533333333, 25.073631555555558], [86.21588533333333, 25.073909333333333], [86.21532977777777, 25.073909333333333], [86.21532977777777, 25.07418711111111], [86.21477422222222, 25.07418711111111], [86.21477422222222, 25.07446488888889], [86.21421866666667, 25.07446488888889], [86.21421866666667, 25.074742666666666], [86.2136631111111, 25.074742666666666], [86.2136631111111, 25.075020444444444], [86.21310755555555, 25.075020444444444], [86.21310755555555, 25.075298222222223], [86.212552, 25.075298222222223], [86.212552, 25.075576], [86.21199644444444, 25.075576], [86.21199644444444, 25.075853777777777], [86.21144088888889, 25.075853777777777], [86.21144088888889, 25.076131555555556], [86.21088533333332, 25.076131555555556], [86.21088533333332, 25.076409333333334], [86.21032977777777, 25.076409333333334], [86.21032977777777, 25.076687111111113], [86.20977422222222, 25.076687111111113], [86.20977422222222, 25.076964888888888], [86.20921866666666, 25.076964888888888], [86.20921866666666, 25.077242666666667], [86.20866311111111, 25.077242666666667], [86.20866311111111, 25.077520444444446], [86.20810755555556, 25.077520444444446], [86.20810755555556, 25.077798222222224], [86.20727422222222, 25.077798222222224], [86.20727422222222, 25.078076], [86.20699644444444, 25.078076], [86.20699644444444, 25.078353777777778], [86.20644088888888, 25.078353777777778], [86.20644088888888, 25.078631555555557], [86.20588533333333, 25.078631555555557], [86.20588533333333, 25.078909333333335], [86.20532977777778, 25.078909333333335], [86.20532977777778, 25.07918711111111], [86.20477422222221, 25.07918711111111], [86.20477422222221, 25.07946488888889], [86.20421866666666, 25.07946488888889], [86.20421866666666, 25.079742666666668], [86.20366311111111, 25.079742666666668], [86.20366311111111, 25.080020444444443], [86.20310755555555, 25.080020444444443], [86.20310755555555, 25.080298222222222], [86.202552, 25.080298222222222], [86.202552, 25.080576], [86.20199644444445, 25.080576], [86.20199644444445, 25.08085377777778], [86.20144088888888, 25.08085377777778], [86.20144088888888, 25.081131555555555], [86.20088533333333, 25.081131555555555], [86.20088533333333, 25.081409333333333], [86.20032977777777, 25.081409333333333], [86.20032977777777, 25.081687111111112], [86.19977422222222, 25.081687111111112], [86.19977422222222, 25.08196488888889], [86.19921866666667, 25.08196488888889], [86.19921866666667, 25.082242666666666], [86.1986631111111, 25.082242666666666], [86.1986631111111, 25.082520444444445], [86.19810755555555, 25.082520444444445], [86.19810755555555, 25.082798222222223], [86.197552, 25.082798222222223], [86.197552, 25.083076000000002], [86.19699644444444, 25.083076000000002], [86.19699644444444, 25.083353777777777], [86.19644088888889, 25.083353777777777], [86.19644088888889, 25.083631555555556], [86.19588533333332, 25.083631555555556], [86.19588533333332, 25.083909333333335], [86.19532977777777, 25.083909333333335], [86.19532977777777, 25.084187111111113], [86.19477422222222, 25.084187111111113], [86.19477422222222, 25.08446488888889], [86.19421866666666, 25.08446488888889], [86.19421866666666, 25.084742666666667], [86.1936631111111, 25.084742666666667], [86.1936631111111, 25.085020444444446], [86.19310755555556, 25.085020444444446], [86.19310755555556, 25.08529822222222], [86.19255199999999, 25.08529822222222], [86.19255199999999, 25.085576], [86.19199644444444, 25.085576], [86.19199644444444, 25.08585377777778], [86.19144088888889, 25.08585377777778], [86.19144088888889, 25.086131555555557], [86.19088533333333, 25.086131555555557], [86.19088533333333, 25.086409333333332], [86.19032977777778, 25.086409333333332], [86.19032977777778, 25.08668711111111], [86.18977422222221, 25.08668711111111], [86.18977422222221, 25.08696488888889], [86.18921866666666, 25.08696488888889], [86.18921866666666, 25.08724266666667], [86.18866311111111, 25.08724266666667], [86.18866311111111, 25.087520444444444], [86.18810755555555, 25.087520444444444], [86.18810755555555, 25.087798222222222], [86.187552, 25.087798222222222], [86.187552, 25.088076], [86.18699644444445, 25.088076], [86.18699644444445, 25.08835377777778], [86.18644088888888, 25.08835377777778], [86.18644088888888, 25.088631555555555], [86.18588533333333, 25.088631555555555], [86.18588533333333, 25.088909333333334], [86.18532977777777, 25.088909333333334], [86.18532977777777, 25.089187111111112], [86.18477422222222, 25.089187111111112], [86.18477422222222, 25.08946488888889], [86.18421866666667, 25.08946488888889], [86.18421866666667, 25.089742666666666], [86.1836631111111, 25.089742666666666], [86.1836631111111, 25.090020444444445], [86.18310755555555, 25.090020444444445], [86.18310755555555, 25.090298222222224], [86.182552, 25.090298222222224], [86.182552, 25.090576000000002], [86.18199644444444, 25.090576000000002], [86.18199644444444, 25.090853777777777], [86.18144088888889, 25.090853777777777], [86.18144088888889, 25.091131555555556], [86.18088533333332, 25.091131555555556], [86.18088533333332, 25.091409333333335], [86.18032977777777, 25.091409333333335], [86.18032977777777, 25.09168711111111], [86.17977422222222, 25.09168711111111], [86.17977422222222, 25.09196488888889], [86.17921866666666, 25.09196488888889], [86.17921866666666, 25.092242666666667], [86.1786631111111, 25.092242666666667], [86.1786631111111, 25.092520444444446], [86.17810755555556, 25.092520444444446], [86.17810755555556, 25.09279822222222], [86.17755199999999, 25.09279822222222], [86.17755199999999, 25.093076], [86.17699644444444, 25.093076], [86.17699644444444, 25.09335377777778], [86.17644088888889, 25.09335377777778], [86.17644088888889, 25.093631555555557], [86.17588533333333, 25.093631555555557], [86.17588533333333, 25.093909333333333], [86.17532977777778, 25.093909333333333], [86.17532977777778, 25.09418711111111], [86.17477422222221, 25.09418711111111], [86.17477422222221, 25.09446488888889], [86.17421866666666, 25.09446488888889], [86.17421866666666, 25.09474266666667], [86.17366311111111, 25.09474266666667], [86.17366311111111, 25.095020444444444], [86.17310755555555, 25.095020444444444], [86.17310755555555, 25.095298222222223], [86.172552, 25.095298222222223], [86.172552, 25.095576], [86.17199644444445, 25.095576], [86.17199644444445, 25.09585377777778], [86.17144088888888, 25.09585377777778], [86.17144088888888, 25.096131555555555], [86.17088533333333, 25.096131555555555], [86.17088533333333, 25.096409333333334], [86.17032977777777, 25.096409333333334], [86.17032977777777, 25.096687111111113], [86.16977422222222, 25.096687111111113], [86.16977422222222, 25.096964888888888], [86.16921866666667, 25.096964888888888], [86.16921866666667, 25.097242666666666], [86.1686631111111, 25.097242666666666], [86.1686631111111, 25.097520444444445], [86.16810755555555, 25.097520444444445], [86.16810755555555, 25.097798222222224], [86.167552, 25.097798222222224], [86.167552, 25.098076], [86.16699644444444, 25.098076], [86.16699644444444, 25.098353777777778], [86.16644088888889, 25.098353777777778], [86.16644088888889, 25.098631555555556], [86.16588533333334, 25.098631555555556], [86.16588533333334, 25.098909333333335], [86.16532977777777, 25.098909333333335], [86.16532977777777, 25.09918711111111], [86.16477422222222, 25.09918711111111], [86.16477422222222, 25.09946488888889], [86.16421866666666, 25.09946488888889], [86.16421866666666, 25.099742666666668], [86.1636631111111, 25.099742666666668], [86.1636631111111, 25.100020444444446], [86.16310755555556, 25.100020444444446], [86.16310755555556, 25.10029822222222], [86.16255199999999, 25.10029822222222], [86.16255199999999, 25.100576], [86.16199644444444, 25.100576], [86.16199644444444, 25.10085377777778], [86.16144088888889, 25.10085377777778], [86.16144088888889, 25.101131555555558], [86.16088533333333, 25.101131555555558], [86.16088533333333, 25.101409333333333], [86.16032977777778, 25.101409333333333], [86.16032977777778, 25.10168711111111], [86.15977422222221, 25.10168711111111], [86.15977422222221, 25.10196488888889], [86.15921866666666, 25.10196488888889], [86.15921866666666, 25.10224266666667], [86.15866311111111, 25.10224266666667], [86.15866311111111, 25.102520444444444], [86.15810755555555, 25.102520444444444], [86.15810755555555, 25.102798222222223], [86.157552, 25.102798222222223], [86.157552, 25.103076], [86.15699644444445, 25.103076], [86.15699644444445, 25.103353777777777], [86.15644088888888, 25.103353777777777], [86.15644088888888, 25.103631555555555], [86.15588533333333, 25.103631555555555], [86.15588533333333, 25.103909333333334], [86.15532977777778, 25.103909333333334], [86.15532977777778, 25.104187111111113], [86.15477422222222, 25.104187111111113], [86.15477422222222, 25.104464888888888], [86.15421866666667, 25.104464888888888], [86.15421866666667, 25.104742666666667], [86.1536631111111, 25.104742666666667], [86.1536631111111, 25.105020444444445], [86.15310755555555, 25.105020444444445], [86.15310755555555, 25.105298222222224], [86.152552, 25.105298222222224], [86.152552, 25.105576], [86.15199644444444, 25.105576], [86.15199644444444, 25.105853777777778], [86.15144088888889, 25.105853777777778], [86.15144088888889, 25.106131555555557], [86.15088533333333, 25.106131555555557], [86.15088533333333, 25.106409333333335], [86.15032977777777, 25.106409333333335], [86.15032977777777, 25.10668711111111], [86.14977422222222, 25.10668711111111], [86.14977422222222, 25.10696488888889], [86.14921866666666, 25.10696488888889], [86.14921866666666, 25.107242666666668], [86.1486631111111, 25.107242666666668], [86.1486631111111, 25.107520444444447], [86.14838533333332, 25.107520444444447]], [[86.20949644444444, 25.072242666666668], [86.21005199999999, 25.072242666666668], [86.21005199999999, 25.07196488888889], [86.21032977777777, 25.07196488888889], [86.21032977777777, 25.070576], [86.21005199999999, 25.070576], [86.21005199999999, 25.070020444444445], [86.20977422222222, 25.070020444444445], [86.20977422222222, 25.069187111111113], [86.20949644444444, 25.069187111111113], [86.20949644444444, 25.069464888888888], [86.20921866666666, 25.069464888888888], [86.20921866666666, 25.069742666666667], [86.20866311111111, 25.069742666666667], [86.20866311111111, 25.070298222222224], [86.20894088888889, 25.070298222222224], [86.20894088888889, 25.071131555555557], [86.20866311111111, 25.071131555555557], [86.20866311111111, 25.071409333333335], [86.20894088888889, 25.071409333333335], [86.20894088888889, 25.07196488888889], [86.20949644444444, 25.07196488888889], [86.20949644444444, 25.072242666666668]], [[86.13032977777777, 25.047520444444444], [86.13310755555555, 25.047520444444444], [86.13310755555555, 25.047242666666666], [86.13394088888889, 25.047242666666666], [86.13394088888889, 25.047520444444444], [86.13477422222222, 25.047520444444444], [86.13477422222222, 25.047242666666666], [86.13588533333333, 25.047242666666666], [86.13588533333333, 25.04696488888889], [86.13644088888888, 25.04696488888889], [86.13644088888888, 25.046687111111112], [86.13699644444443, 25.046687111111112], [86.13699644444443, 25.046409333333333], [86.13727422222222, 25.046409333333333], [86.13727422222222, 25.046131555555554], [86.137552, 25.046131555555554], [86.137552, 25.045298222222222], [86.13782977777777, 25.045298222222222], [86.13782977777777, 25.044742666666668], [86.13838533333333, 25.044742666666668], [86.13838533333333, 25.04446488888889], [86.13699644444443, 25.04446488888889], [86.13699644444443, 25.044742666666668], [86.13532977777777, 25.044742666666668], [86.13532977777777, 25.045020444444447], [86.13421866666667, 25.045020444444447], [86.13421866666667, 25.045298222222222], [86.1336631111111, 25.045298222222222], [86.1336631111111, 25.045576], [86.13338533333332, 25.045576], [86.13338533333332, 25.045298222222222], [86.13255199999999, 25.045298222222222], [86.13255199999999, 25.04446488888889], [86.13227422222222, 25.04446488888889], [86.13227422222222, 25.04418711111111], [86.13199644444444, 25.04418711111111], [86.13199644444444, 25.043909333333335], [86.1311631111111, 25.043909333333335], [86.1311631111111, 25.04418711111111], [86.12838533333333, 25.04418711111111], [86.12838533333333, 25.04446488888889], [86.12810755555554, 25.04446488888889], [86.12810755555554, 25.044742666666668], [86.12671866666666, 25.044742666666668], [86.12671866666666, 25.04418711111111], [86.12616311111111, 25.04418711111111], [86.12616311111111, 25.04446488888889], [86.12560755555555, 25.04446488888889], [86.12560755555555, 25.044742666666668], [86.12532977777778, 25.044742666666668], [86.12532977777778, 25.045576], [86.12588533333333, 25.045576], [86.12588533333333, 25.046409333333333], [86.12616311111111, 25.046409333333333], [86.12616311111111, 25.046687111111112], [86.12644088888888, 25.046687111111112], [86.12644088888888, 25.04696488888889], [86.12671866666666, 25.04696488888889], [86.12671866666666, 25.047242666666666], [86.13032977777777, 25.047242666666666], [86.13032977777777, 25.047520444444444]], [[86.16644088888889, 25.03696488888889], [86.167552, 25.03696488888889], [86.167552, 25.036409333333335], [86.16782977777777, 25.036409333333335], [86.16782977777777, 25.035298222222224], [86.167552, 25.035298222222224], [86.167552, 25.035020444444445], [86.16727422222222, 25.035020444444445], [86.16727422222222, 25.034742666666666], [86.16671866666667, 25.034742666666666], [86.16671866666667, 25.034464888888888], [86.16588533333334, 25.034464888888888], [86.16588533333334, 25.034742666666666], [86.16477422222222, 25.034742666666666], [86.16477422222222, 25.035298222222224], [86.16449644444444, 25.035298222222224], [86.16449644444444, 25.035853777777778], [86.16477422222222, 25.035853777777778], [86.16477422222222, 25.036131555555556], [86.16532977777777, 25.036131555555556], [86.16532977777777, 25.036409333333335], [86.16588533333334, 25.036409333333335], [86.16588533333334, 25.03668711111111], [86.16644088888889, 25.03668711111111], [86.16644088888889, 25.03696488888889]], [[86.30949644444443, 25.022520444444446], [86.30977422222222, 25.022520444444446], [86.30977422222222, 25.022242666666667], [86.30949644444443, 25.022242666666667], [86.30949644444443, 25.022520444444446]], [[86.30921866666667, 25.022242666666667], [86.30949644444443, 25.022242666666667], [86.30949644444443, 25.02196488888889], [86.30921866666667, 25.02196488888889], [86.30921866666667, 25.022242666666667]], [[86.3086631111111, 25.02196488888889], [86.30894088888888, 25.02196488888889], [86.30894088888888, 25.021687111111113], [86.3086631111111, 25.021687111111113], [86.3086631111111, 25.02196488888889]], [[86.31032977777777, 25.020576000000002], [86.31060755555555, 25.020576000000002], [86.31060755555555, 25.020298222222223], [86.31032977777777, 25.020298222222223], [86.31032977777777, 25.020576000000002]], [[86.310052, 25.01835377777778], [86.31032977777777, 25.01835377777778], [86.31032977777777, 25.018076], [86.310052, 25.018076], [86.310052, 25.01835377777778]], [[86.31171866666666, 25.017798222222222], [86.31199644444445, 25.017798222222222], [86.31199644444445, 25.017520444444443], [86.31171866666666, 25.017520444444443], [86.31171866666666, 25.017798222222222]], [[86.312552, 25.017242666666668], [86.31282977777778, 25.017242666666668], [86.31282977777778, 25.01696488888889], [86.312552, 25.01696488888889], [86.312552, 25.017242666666668]], [[86.32782977777778, 25.015576], [86.32810755555555, 25.015576], [86.32810755555555, 25.015298222222224], [86.32782977777778, 25.015298222222224], [86.32782977777778, 25.015576]], [[86.30699644444444, 25.014742666666667], [86.30782977777777, 25.014742666666667], [86.30782977777777, 25.014464888888888], [86.30810755555555, 25.014464888888888], [86.30810755555555, 25.013353777777777], [86.30727422222222, 25.013353777777777], [86.30727422222222, 25.013909333333334], [86.30699644444444, 25.013909333333334], [86.30699644444444, 25.014742666666667]], [[86.26282977777777, 25.013353777777777], [86.2636631111111, 25.013353777777777], [86.2636631111111, 25.013076], [86.26338533333333, 25.013076], [86.26338533333333, 25.012798222222223], [86.26310755555555, 25.012798222222223], [86.26310755555555, 25.012520444444444], [86.26227422222222, 25.012520444444444], [86.26227422222222, 25.012798222222223], [86.262552, 25.012798222222223], [86.262552, 25.013076], [86.26282977777777, 25.013076], [86.26282977777777, 25.013353777777777]], [[86.30144088888889, 25.013353777777777], [86.30227422222222, 25.013353777777777], [86.30227422222222, 25.013076], [86.30255199999999, 25.013076], [86.30255199999999, 25.012798222222223], [86.30282977777777, 25.012798222222223], [86.30282977777777, 25.012520444444444], [86.30255199999999, 25.012520444444444], [86.30255199999999, 25.01196488888889], [86.30227422222222, 25.01196488888889], [86.30227422222222, 25.01168711111111], [86.30144088888889, 25.01168711111111], [86.30144088888889, 25.011409333333333], [86.300052, 25.011409333333333], [86.300052, 25.01196488888889], [86.30032977777778, 25.01196488888889], [86.30032977777778, 25.012242666666666], [86.30088533333333, 25.012242666666666], [86.30088533333333, 25.012520444444444], [86.30116311111111, 25.012520444444444], [86.30116311111111, 25.012798222222223], [86.30144088888889, 25.012798222222223], [86.30144088888889, 25.013353777777777]], [[86.322552, 25.012798222222223], [86.32282977777777, 25.012798222222223], [86.32282977777777, 25.012520444444444], [86.322552, 25.012520444444444], [86.322552, 25.012798222222223]], [[86.330052, 25.012798222222223], [86.33032977777778, 25.012798222222223], [86.33032977777778, 25.012520444444444], [86.330052, 25.012520444444444], [86.330052, 25.012798222222223]], [[86.25699644444444, 25.012520444444444], [86.25727422222222, 25.012520444444444], [86.25727422222222, 25.012242666666666], [86.25782977777777, 25.012242666666666], [86.25782977777777, 25.01168711111111], [86.25755199999999, 25.01168711111111], [86.25755199999999, 25.011409333333333], [86.25644088888889, 25.011409333333333], [86.25644088888889, 25.01196488888889], [86.25671866666666, 25.01196488888889], [86.25671866666666, 25.012242666666666], [86.25699644444444, 25.012242666666666], [86.25699644444444, 25.012520444444444]], [[86.32310755555555, 25.01196488888889], [86.32338533333333, 25.01196488888889], [86.32338533333333, 25.01168711111111], [86.32310755555555, 25.01168711111111], [86.32310755555555, 25.01196488888889]], [[86.2561631111111, 25.011409333333333], [86.25644088888889, 25.011409333333333], [86.25644088888889, 25.010576], [86.2561631111111, 25.010576], [86.2561631111111, 25.01029822222222], [86.25532977777777, 25.01029822222222], [86.25532977777777, 25.010576], [86.25505199999999, 25.010576], [86.25505199999999, 25.01085377777778], [86.25532977777777, 25.01085377777778], [86.25532977777777, 25.011131555555558], [86.2561631111111, 25.011131555555558], [86.2561631111111, 25.011409333333333]], [[86.32449644444443, 25.011409333333333], [86.32477422222222, 25.011409333333333], [86.32477422222222, 25.011131555555558], [86.32449644444443, 25.011131555555558], [86.32449644444443, 25.011409333333333]], [[86.29810755555555, 25.01029822222222], [86.29894088888888, 25.01029822222222], [86.29894088888888, 25.010020444444446], [86.29810755555555, 25.010020444444446], [86.29810755555555, 25.01029822222222]], [[86.29782977777778, 25.010020444444446], [86.29810755555555, 25.010020444444446], [86.29810755555555, 25.009742666666668], [86.29782977777778, 25.009742666666668], [86.29782977777778, 25.010020444444446]], [[86.13894088888888, 25.009742666666668], [86.13977422222221, 25.009742666666668], [86.13977422222221, 25.00946488888889], [86.14060755555555, 25.00946488888889], [86.14060755555555, 25.00918711111111], [86.14088533333333, 25.00918711111111], [86.14088533333333, 25.008909333333335], [86.14032977777778, 25.008909333333335], [86.14032977777778, 25.00918711111111], [86.13921866666666, 25.00918711111111], [86.13921866666666, 25.00946488888889], [86.13894088888888, 25.00946488888889], [86.13894088888888, 25.009742666666668]], [[86.29616311111111, 25.00918711111111], [86.29644088888888, 25.00918711111111], [86.29644088888888, 25.008909333333335], [86.29616311111111, 25.008909333333335], [86.29616311111111, 25.00918711111111]], [[86.34199644444443, 25.003909333333333], [86.34227422222222, 25.003909333333333], [86.34227422222222, 25.00335377777778], [86.34199644444443, 25.00335377777778], [86.34199644444443, 25.003909333333333]], [[86.3511631111111, 25.003909333333333], [86.35144088888889, 25.003909333333333], [86.35144088888889, 25.003631555555557], [86.3511631111111, 25.003631555555557], [86.3511631111111, 25.003909333333333]], [[86.35144088888889, 25.003631555555557], [86.35171866666666, 25.003631555555557], [86.35171866666666, 25.00335377777778], [86.35144088888889, 25.00335377777778], [86.35144088888889, 25.003631555555557]], [[86.25671866666666, 25.00335377777778], [86.25727422222222, 25.00335377777778], [86.25727422222222, 25.003076], [86.25699644444444, 25.003076], [86.25699644444444, 25.00279822222222], [86.25644088888889, 25.00279822222222], [86.25644088888889, 25.003076], [86.25671866666666, 25.003076], [86.25671866666666, 25.00335377777778]], [[86.2561631111111, 25.00279822222222], [86.25644088888889, 25.00279822222222], [86.25644088888889, 25.002520444444446], [86.2561631111111, 25.002520444444446], [86.2561631111111, 25.00279822222222]], [[86.25532977777777, 25.002242666666668], [86.25560755555556, 25.002242666666668], [86.25560755555556, 25.00196488888889], [86.25532977777777, 25.00196488888889], [86.25532977777777, 25.002242666666668]], [[86.34921866666666, 25.00196488888889], [86.34949644444444, 25.00196488888889], [86.34949644444444, 25.00168711111111], [86.34921866666666, 25.00168711111111], [86.34921866666666, 25.00196488888889]], [[86.34171866666667, 25.001409333333335], [86.34199644444443, 25.001409333333335], [86.34199644444443, 25.001131555555556], [86.34171866666667, 25.001131555555556], [86.34171866666667, 25.001409333333335]], [[86.35282977777777, 25.000853777777778], [86.35310755555555, 25.000853777777778], [86.35310755555555, 25.000576], [86.35282977777777, 25.000576], [86.35282977777777, 25.000853777777778]], [[86.35255199999999, 25.000576], [86.35282977777777, 25.000576], [86.35282977777777, 25.000298222222224], [86.35255199999999, 25.000298222222224], [86.35255199999999, 25.000576]]]}}]}